[{"id":1,"name":"Chattagram","bn_name":"\u099a\u099f\u09cd\u099f\u0997\u09cd\u09b0\u09be\u09ae","lat":22.356851,"long":91.783182,"url":"www.chittagongdiv.gov.bd"},{"id":2,"name":"Rajshahi","bn_name":"\u09b0\u09be\u099c\u09b6\u09be\u09b9\u09c0","lat":24.363589,"long":88.624135,"url":"www.rajshahidiv.gov.bd"},{"id":3,"name":"Khulna","bn_name":"\u0996\u09c1\u09b2\u09a8\u09be","lat":22.845641,"long":89.540328,"url":"www.khulnadiv.gov.bd"},{"id":4,"name":"Barisal","bn_name":"\u09ac\u09b0\u09bf\u09b6\u09be\u09b2","lat":22.701002,"long":90.353451,"url":"www.barisaldiv.gov.bd"},{"id":5,"name":"Sylhet","bn_name":"\u09b8\u09bf\u09b2\u09c7\u099f","lat":24.894929,"long":91.868706,"url":"www.sylhetdiv.gov.bd"},{"id":6,"name":"Dhaka","bn_name":"\u09a2\u09be\u0995\u09be","lat":23.810332,"long":90.412518,"url":"www.dhakadiv.gov.bd"},{"id":7,"name":"Rangpur","bn_name":"\u09b0\u0982\u09aa\u09c1\u09b0","lat":25.743892,"long":89.275227,"url":"www.rangpurdiv.gov.bd"},{"id":8,"name":"Mymensingh","bn_name":"\u09ae\u09df\u09ae\u09a8\u09b8\u09bf\u0982\u09b9","lat":24.747149,"long":90.420273,"url":"www.mymensinghdiv.gov.bd"}]