[{"id":1,"district_id":1,"name":"Debidwar","bn_name":"\u09a6\u09c7\u09ac\u09bf\u09a6\u09cd\u09ac\u09be\u09b0","lat":23.5965294,"lon":90.9935327,"url":"debidwar.comilla.gov.bd"},{"id":2,"district_id":1,"name":"Barura","bn_name":"\u09ac\u09b0\u09c1\u09a1\u09bc\u09be","lat":17.7510911,"lon":77.5547568,"url":"barura.comilla.gov.bd"},{"id":3,"district_id":1,"name":"Brahmanpara","bn_name":"\u09ac\u09cd\u09b0\u09be\u09b9\u09cd\u09ae\u09a3\u09aa\u09be\u09a1\u09bc\u09be","lat":23.6145423,"lon":91.1066131,"url":"brahmanpara.comilla.gov.bd"},{"id":4,"district_id":1,"name":"Chandina","bn_name":"\u099a\u09be\u09a8\u09cd\u09a6\u09bf\u09a8\u09be","lat":23.4883756,"lon":91.0078123,"url":"chandina.comilla.gov.bd"},{"id":5,"district_id":1,"name":"Chauddagram","bn_name":"\u099a\u09cc\u09a6\u09cd\u09a6\u0997\u09cd\u09b0\u09be\u09ae","lat":23.22597,"lon":91.3134783,"url":"chauddagram.comilla.gov.bd"},{"id":6,"district_id":1,"name":"Daudkandi","bn_name":"\u09a6\u09be\u0989\u09a6\u0995\u09be\u09a8\u09cd\u09a6\u09bf","lat":23.5373475,"lon":90.7152458,"url":"daudkandi.comilla.gov.bd"},{"id":7,"district_id":1,"name":"Homna","bn_name":"\u09b9\u09cb\u09ae\u09a8\u09be","lat":23.693863,"lon":90.7809834,"url":"homna.comilla.gov.bd"},{"id":8,"district_id":1,"name":"Laksam","bn_name":"\u09b2\u09be\u0995\u09b8\u09be\u09ae","lat":23.2362647,"lon":91.1198271,"url":"laksam.comilla.gov.bd"},{"id":9,"district_id":1,"name":"Muradnagar","bn_name":"\u09ae\u09c1\u09b0\u09be\u09a6\u09a8\u0997\u09b0","lat":28.7733808,"lon":77.5033582,"url":"muradnagar.comilla.gov.bd"},{"id":10,"district_id":1,"name":"Nangalkot","bn_name":"\u09a8\u09be\u0999\u09cd\u0997\u09b2\u0995\u09cb\u099f","lat":0.0,"lon":0.0,"url":"nangalkot.comilla.gov.bd"},{"id":11,"district_id":1,"name":"Comilla Sadar","bn_name":"\u0995\u09c1\u09ae\u09bf\u09b2\u09cd\u09b2\u09be \u09b8\u09a6\u09b0","lat":23.4553504,"lon":91.1816815,"url":"comillasadar.comilla.gov.bd"},{"id":12,"district_id":1,"name":"Meghna","bn_name":"\u09ae\u09c7\u0998\u09a8\u09be","lat":23.4342874,"lon":90.5831225,"url":"meghna.comilla.gov.bd"},{"id":13,"district_id":1,"name":"Monohargonj","bn_name":"\u09ae\u09a8\u09cb\u09b9\u09b0\u0997\u099e\u09cd\u099c","lat":0.0,"lon":0.0,"url":"monohargonj.comilla.gov.bd"},{"id":14,"district_id":1,"name":"Sadarsouth","bn_name":"\u09b8\u09a6\u09b0 \u09a6\u0995\u09cd\u09b7\u09bf\u09a3","lat":0.0,"lon":0.0,"url":"sadarsouth.comilla.gov.bd"},{"id":15,"district_id":1,"name":"Titas","bn_name":"\u09a4\u09bf\u09a4\u09be\u09b8","lat":5.8284448,"lon":-73.0350094,"url":"titas.comilla.gov.bd"},{"id":16,"district_id":1,"name":"Burichang","bn_name":"\u09ac\u09c1\u09a1\u09bc\u09bf\u099a\u0982","lat":23.5598424,"lon":91.1259324,"url":"burichang.comilla.gov.bd"},{"id":17,"district_id":1,"name":"Lalmai","bn_name":"\u09b2\u09be\u09b2\u09ae\u09be\u0987","lat":23.2876976,"lon":91.1278632,"url":"lalmai.comilla.gov.bd"},{"id":18,"district_id":2,"name":"Chhagalnaiya","bn_name":"\u099b\u09be\u0997\u09b2\u09a8\u09be\u0987\u09df\u09be","lat":0.0,"lon":0.0,"url":"chhagalnaiya.feni.gov.bd"},{"id":19,"district_id":2,"name":"Feni Sadar","bn_name":"\u09ab\u09c7\u09a8\u09c0 \u09b8\u09a6\u09b0","lat":0.0,"lon":0.0,"url":"sadar.feni.gov.bd"},{"id":20,"district_id":2,"name":"Sonagazi","bn_name":"\u09b8\u09cb\u09a8\u09be\u0997\u09be\u099c\u09c0","lat":0.0,"lon":0.0,"url":"sonagazi.feni.gov.bd"},{"id":21,"district_id":2,"name":"Fulgazi","bn_name":"\u09ab\u09c1\u09b2\u0997\u09be\u099c\u09c0","lat":0.0,"lon":0.0,"url":"fulgazi.feni.gov.bd"},{"id":22,"district_id":2,"name":"Parshuram","bn_name":"\u09aa\u09b0\u09b6\u09c1\u09b0\u09be\u09ae","lat":17.5580167,"lon":73.5020833,"url":"parshuram.feni.gov.bd"},{"id":23,"district_id":2,"name":"Daganbhuiyan","bn_name":"\u09a6\u09be\u0997\u09a8\u09ad\u09c2\u099e\u09be","lat":22.9372022,"lon":91.3026932,"url":"daganbhuiyan.feni.gov.bd"},{"id":24,"district_id":3,"name":"Brahmanbaria Sadar","bn_name":"\u09ac\u09cd\u09b0\u09be\u09b9\u09cd\u09ae\u09a3\u09ac\u09be\u09dc\u09bf\u09df\u09be \u09b8\u09a6\u09b0","lat":24.0755411,"lon":91.1123798,"url":"sadar.brahmanbaria.gov.bd"},{"id":25,"district_id":3,"name":"Kasba","bn_name":"\u0995\u09b8\u09ac\u09be","lat":25.8779519,"lon":87.5469272218,"url":"kasba.brahmanbaria.gov.bd"},{"id":26,"district_id":3,"name":"Nasirnagar","bn_name":"\u09a8\u09be\u09b8\u09bf\u09b0\u09a8\u0997\u09b0","lat":24.1928465,"lon":91.1946433,"url":"nasirnagar.brahmanbaria.gov.bd"},{"id":27,"district_id":3,"name":"Sarail","bn_name":"\u09b8\u09b0\u09be\u0987\u09b2","lat":44.8981185,"lon":-0.4434221,"url":"sarail.brahmanbaria.gov.bd"},{"id":28,"district_id":3,"name":"Ashuganj","bn_name":"\u0986\u09b6\u09c1\u0997\u099e\u09cd\u099c","lat":24.0335326,"lon":90.9972445,"url":"ashuganj.brahmanbaria.gov.bd"},{"id":29,"district_id":3,"name":"Akhaura","bn_name":"\u0986\u0996\u09be\u0989\u09dc\u09be","lat":23.8681221,"lon":91.2088835,"url":"akhaura.brahmanbaria.gov.bd"},{"id":30,"district_id":3,"name":"Nabinagar","bn_name":"\u09a8\u09ac\u09c0\u09a8\u0997\u09b0","lat":24.642785,"lon":84.0968211718,"url":"nabinagar.brahmanbaria.gov.bd"},{"id":31,"district_id":3,"name":"Bancharampur","bn_name":"\u09ac\u09be\u099e\u09cd\u099b\u09be\u09b0\u09be\u09ae\u09aa\u09c1\u09b0","lat":23.7782766,"lon":90.8058623,"url":"bancharampur.brahmanbaria.gov.bd"},{"id":32,"district_id":3,"name":"Bijoynagar","bn_name":"\u09ac\u09bf\u099c\u09df\u09a8\u0997\u09b0","lat":23.9532717,"lon":88.0458095,"url":"bijoynagar.brahmanbaria.gov.bd    "},{"id":33,"district_id":4,"name":"Rangamati Sadar","bn_name":"\u09b0\u09be\u0999\u09cd\u0997\u09be\u09ae\u09be\u099f\u09bf \u09b8\u09a6\u09b0","lat":22.3247706,"lon":92.1460867,"url":"sadar.rangamati.gov.bd"},{"id":34,"district_id":4,"name":"Kaptai","bn_name":"\u0995\u09be\u09aa\u09cd\u09a4\u09be\u0987","lat":22.5046788,"lon":92.2111444,"url":"kaptai.rangamati.gov.bd"},{"id":35,"district_id":4,"name":"Kawkhali","bn_name":"\u0995\u09be\u0989\u0996\u09be\u09b2\u09c0","lat":22.6261283,"lon":90.0592775,"url":"kawkhali.rangamati.gov.bd"},{"id":36,"district_id":4,"name":"Baghaichari","bn_name":"\u09ac\u09be\u0998\u09be\u0987\u099b\u09dc\u09bf","lat":0.0,"lon":0.0,"url":"baghaichari.rangamati.gov.bd"},{"id":37,"district_id":4,"name":"Barkal","bn_name":"\u09ac\u09b0\u0995\u09b2","lat":22.7987515,"lon":92.3290415,"url":"barkal.rangamati.gov.bd"},{"id":38,"district_id":4,"name":"Langadu","bn_name":"\u09b2\u0982\u0997\u09a6\u09c1","lat":0.0,"lon":0.0,"url":"langadu.rangamati.gov.bd"},{"id":39,"district_id":4,"name":"Rajasthali","bn_name":"\u09b0\u09be\u099c\u09b8\u09cd\u09a5\u09b2\u09c0","lat":22.1960184,"lon":70.4389963,"url":"rajasthali.rangamati.gov.bd"},{"id":40,"district_id":4,"name":"Belaichari","bn_name":"\u09ac\u09bf\u09b2\u09be\u0987\u099b\u09dc\u09bf","lat":0.0,"lon":0.0,"url":"belaichari.rangamati.gov.bd"},{"id":41,"district_id":4,"name":"Juraichari","bn_name":"\u099c\u09c1\u09b0\u09be\u099b\u09dc\u09bf","lat":22.6739081,"lon":92.3811092,"url":"juraichari.rangamati.gov.bd"},{"id":42,"district_id":4,"name":"Naniarchar","bn_name":"\u09a8\u09be\u09a8\u09bf\u09df\u09be\u09b0\u099a\u09b0","lat":0.0,"lon":0.0,"url":"naniarchar.rangamati.gov.bd"},{"id":43,"district_id":5,"name":"Noakhali Sadar","bn_name":"\u09a8\u09cb\u09af\u09bc\u09be\u0996\u09be\u09b2\u09c0 \u09b8\u09a6\u09b0","lat":0.0,"lon":0.0,"url":"sadar.noakhali.gov.bd"},{"id":44,"district_id":5,"name":"Companiganj","bn_name":"\u0995\u09cb\u09ae\u09cd\u09aa\u09be\u09a8\u09c0\u0997\u099e\u09cd\u099c","lat":23.6375741,"lon":90.971007,"url":"companiganj.noakhali.gov.bd"},{"id":45,"district_id":5,"name":"Begumganj","bn_name":"\u09ac\u09c7\u0997\u09ae\u0997\u099e\u09cd\u099c","lat":22.9421436,"lon":91.0996725,"url":"begumganj.noakhali.gov.bd"},{"id":46,"district_id":5,"name":"Hatia","bn_name":"\u09b9\u09be\u09a4\u09bf\u09af\u09bc\u09be","lat":23.2991479,"lon":85.3234589,"url":"hatia.noakhali.gov.bd"},{"id":47,"district_id":5,"name":"Subarnachar","bn_name":"\u09b8\u09c1\u09ac\u09b0\u09cd\u09a3\u099a\u09b0","lat":0.0,"lon":0.0,"url":"subarnachar.noakhali.gov.bd"},{"id":48,"district_id":5,"name":"Kabirhat","bn_name":"\u0995\u09ac\u09bf\u09b0\u09b9\u09be\u099f","lat":22.8220772,"lon":91.1170328,"url":"kabirhat.noakhali.gov.bd"},{"id":49,"district_id":5,"name":"Senbug","bn_name":"\u09b8\u09c7\u09a8\u09ac\u09be\u0997","lat":0.0,"lon":0.0,"url":"senbug.noakhali.gov.bd"},{"id":50,"district_id":5,"name":"Chatkhil","bn_name":"\u099a\u09be\u099f\u0996\u09bf\u09b2","lat":23.063094,"lon":90.9723615,"url":"chatkhil.noakhali.gov.bd"},{"id":51,"district_id":5,"name":"Sonaimori","bn_name":"\u09b8\u09cb\u09a8\u09be\u0987\u09ae\u09c1\u09a1\u09bc\u09c0","lat":24.00115625,"lon":90.7735387819,"url":"sonaimori.noakhali.gov.bd"},{"id":52,"district_id":6,"name":"Haimchar","bn_name":"\u09b9\u09be\u0987\u09ae\u099a\u09b0","lat":23.0966624,"lon":90.6607486,"url":"haimchar.chandpur.gov.bd"},{"id":53,"district_id":6,"name":"Kachua","bn_name":"\u0995\u099a\u09c1\u09af\u09bc\u09be","lat":23.1504621,"lon":89.2700099,"url":"kachua.chandpur.gov.bd"},{"id":54,"district_id":6,"name":"Shahrasti","bn_name":"\u09b6\u09be\u09b9\u09b0\u09be\u09b8\u09cd\u09a4\u09bf\t","lat":26.2256201,"lon":50.5924083,"url":"shahrasti.chandpur.gov.bd"},{"id":55,"district_id":6,"name":"Chandpur Sadar","bn_name":"\u099a\u09be\u0981\u09a6\u09aa\u09c1\u09b0 \u09b8\u09a6\u09b0","lat":25.3075653,"lon":82.9507893,"url":"sadar.chandpur.gov.bd"},{"id":56,"district_id":6,"name":"Matlab South","bn_name":"\u09ae\u09a4\u09b2\u09ac \u09a6\u0995\u09cd\u09b7\u09bf\u09a3","lat":23.3400396,"lon":90.7106389,"url":"matlabsouth.chandpur.gov.bd"},{"id":57,"district_id":6,"name":"Hajiganj","bn_name":"\u09b9\u09be\u099c\u09c0\u0997\u099e\u09cd\u099c","lat":23.2537284,"lon":90.8528584,"url":"hajiganj.chandpur.gov.bd"},{"id":58,"district_id":6,"name":"Matlab North","bn_name":"\u09ae\u09a4\u09b2\u09ac \u0989\u09a4\u09cd\u09a4\u09b0","lat":23.3400396,"lon":90.7106389,"url":"matlabnorth.chandpur.gov.bd"},{"id":59,"district_id":6,"name":"Faridgonj","bn_name":"\u09ab\u09b0\u09bf\u09a6\u0997\u099e\u09cd\u099c","lat":23.0774886,"lon":90.7655479,"url":"faridgonj.chandpur.gov.bd"},{"id":60,"district_id":7,"name":"Lakshmipur Sadar","bn_name":"\u09b2\u0995\u09cd\u09b7\u09cd\u09ae\u09c0\u09aa\u09c1\u09b0 \u09b8\u09a6\u09b0","lat":22.9344195,"lon":90.8326514,"url":"sadar.lakshmipur.gov.bd"},{"id":61,"district_id":7,"name":"Kamalnagar","bn_name":"\u0995\u09ae\u09b2\u09a8\u0997\u09b0","lat":18.2406264,"lon":77.1787242,"url":"kamalnagar.lakshmipur.gov.bd"},{"id":62,"district_id":7,"name":"Raipur","bn_name":"\u09b0\u09be\u09df\u09aa\u09c1\u09b0","lat":21.2379469,"lon":81.6336833,"url":"raipur.lakshmipur.gov.bd"},{"id":63,"district_id":7,"name":"Ramgati","bn_name":"\u09b0\u09be\u09ae\u0997\u09a4\u09bf","lat":22.916415,"lon":90.8375765,"url":"ramgati.lakshmipur.gov.bd"},{"id":64,"district_id":7,"name":"Ramganj","bn_name":"\u09b0\u09be\u09ae\u0997\u099e\u09cd\u099c","lat":26.3249609,"lon":88.2873236,"url":"ramganj.lakshmipur.gov.bd"},{"id":65,"district_id":8,"name":"Rangunia","bn_name":"\u09b0\u09be\u0999\u09cd\u0997\u09c1\u09a8\u09bf\u09df\u09be","lat":22.45607565,"lon":92.0274428825,"url":"rangunia.chittagong.gov.bd"},{"id":66,"district_id":8,"name":"Sitakunda","bn_name":"\u09b8\u09c0\u09a4\u09be\u0995\u09c1\u09a8\u09cd\u09a1","lat":22.6176912,"lon":91.6593607331,"url":"sitakunda.chittagong.gov.bd"},{"id":67,"district_id":8,"name":"Mirsharai","bn_name":"\u09ae\u09c0\u09b0\u09b8\u09b0\u09be\u0987","lat":22.84525715,"lon":91.5504643714,"url":"mirsharai.chittagong.gov.bd"},{"id":68,"district_id":8,"name":"Patiya","bn_name":"\u09aa\u099f\u09bf\u09df\u09be","lat":21.5939437,"lon":77.0549494,"url":"patiya.chittagong.gov.bd"},{"id":69,"district_id":8,"name":"Sandwip","bn_name":"\u09b8\u09a8\u09cd\u09a6\u09cd\u09ac\u09c0\u09aa","lat":22.6171321,"lon":91.6530453,"url":"sandwip.chittagong.gov.bd"},{"id":70,"district_id":8,"name":"Banshkhali","bn_name":"\u09ac\u09be\u0981\u09b6\u0996\u09be\u09b2\u09c0","lat":22.0084916,"lon":91.9478252,"url":"banshkhali.chittagong.gov.bd"},{"id":71,"district_id":8,"name":"Boalkhali","bn_name":"\u09ac\u09cb\u09df\u09be\u09b2\u0996\u09be\u09b2\u09c0","lat":22.1902847,"lon":90.7703044,"url":"boalkhali.chittagong.gov.bd"},{"id":72,"district_id":8,"name":"Anwara","bn_name":"\u0986\u09a8\u09cb\u09af\u09bc\u09be\u09b0\u09be","lat":22.2234427,"lon":91.8754871,"url":"anwara.chittagong.gov.bd"},{"id":73,"district_id":8,"name":"Chandanaish","bn_name":"\u099a\u09a8\u09cd\u09a6\u09a8\u09be\u0987\u09b6","lat":22.24184855,"lon":92.0217547113,"url":"chandanaish.chittagong.gov.bd"},{"id":74,"district_id":8,"name":"Satkania","bn_name":"\u09b8\u09be\u09a4\u0995\u09be\u09a8\u09bf\u09df\u09be","lat":22.074247,"lon":92.0576236,"url":"satkania.chittagong.gov.bd"},{"id":75,"district_id":8,"name":"Lohagara","bn_name":"\u09b2\u09cb\u09b9\u09be\u0997\u09be\u09dc\u09be","lat":25.8514804,"lon":87.8442549,"url":"lohagara.chittagong.gov.bd"},{"id":76,"district_id":8,"name":"Hathazari","bn_name":"\u09b9\u09be\u099f\u09b9\u09be\u099c\u09be\u09b0\u09c0","lat":22.498691,"lon":91.8071182,"url":"hathazari.chittagong.gov.bd"},{"id":77,"district_id":8,"name":"Fatikchhari","bn_name":"\u09ab\u099f\u09bf\u0995\u099b\u09dc\u09bf","lat":22.6843172,"lon":91.7890082,"url":"fatikchhari.chittagong.gov.bd"},{"id":78,"district_id":8,"name":"Raozan","bn_name":"\u09b0\u09be\u0989\u099c\u09be\u09a8","lat":22.45802635,"lon":91.9776889942,"url":"raozan.chittagong.gov.bd"},{"id":79,"district_id":8,"name":"Karnafuli","bn_name":"\u0995\u09b0\u09cd\u09a3\u09ab\u09c1\u09b2\u09c0","lat":22.458903,"lon":92.033157,"url":"karnafuli.chittagong.gov.bd"},{"id":80,"district_id":9,"name":"Coxsbazar Sadar","bn_name":"\u0995\u0995\u09cd\u09b8\u09ac\u09be\u099c\u09be\u09b0 \u09b8\u09a6\u09b0","lat":21.4408169,"lon":91.9768317374,"url":"sadar.coxsbazar.gov.bd"},{"id":81,"district_id":9,"name":"Chakaria","bn_name":"\u099a\u0995\u09b0\u09bf\u09df\u09be","lat":21.7662726,"lon":92.076021,"url":"chakaria.coxsbazar.gov.bd"},{"id":82,"district_id":9,"name":"Kutubdia","bn_name":"\u0995\u09c1\u09a4\u09c1\u09ac\u09a6\u09bf\u09df\u09be","lat":21.8174558,"lon":91.8531978,"url":"kutubdia.coxsbazar.gov.bd"},{"id":83,"district_id":9,"name":"Ukhiya","bn_name":"\u0989\u0996\u09bf\u09df\u09be","lat":21.2182492,"lon":92.1441529,"url":"ukhiya.coxsbazar.gov.bd"},{"id":84,"district_id":9,"name":"Moheshkhali","bn_name":"\u09ae\u09b9\u09c7\u09b6\u0996\u09be\u09b2\u09c0","lat":21.5164749,"lon":91.9801689,"url":"moheshkhali.coxsbazar.gov.bd"},{"id":85,"district_id":9,"name":"Pekua","bn_name":"\u09aa\u09c7\u0995\u09c1\u09df\u09be","lat":-25.3828091,"lon":-57.5729607,"url":"pekua.coxsbazar.gov.bd"},{"id":86,"district_id":9,"name":"Ramu","bn_name":"\u09b0\u09be\u09ae\u09c1","lat":-4.751162,"lon":144.7280082,"url":"ramu.coxsbazar.gov.bd"},{"id":87,"district_id":9,"name":"Teknaf","bn_name":"\u099f\u09c7\u0995\u09a8\u09be\u09ab","lat":20.8684566,"lon":92.298748,"url":"teknaf.coxsbazar.gov.bd"},{"id":88,"district_id":10,"name":"Khagrachhari Sadar","bn_name":"\u0996\u09be\u0997\u09a1\u09bc\u09be\u099b\u09a1\u09bc\u09bf \u09b8\u09a6\u09b0","lat":23.11736725,"lon":91.9753304586,"url":"sadar.khagrachhari.gov.bd"},{"id":89,"district_id":10,"name":"Dighinala","bn_name":"\u09a6\u09bf\u0998\u09c0\u09a8\u09be\u09b2\u09be","lat":23.2426457,"lon":92.0667283,"url":"dighinala.khagrachhari.gov.bd"},{"id":90,"district_id":10,"name":"Panchari","bn_name":"\u09aa\u09be\u09a8\u099b\u09a1\u09bc\u09bf","lat":23.2951052,"lon":91.8968907,"url":"panchari.khagrachhari.gov.bd"},{"id":91,"district_id":10,"name":"Laxmichhari","bn_name":"\u09b2\u0995\u09cd\u09b7\u09c0\u099b\u09a1\u09bc\u09bf","lat":0.0,"lon":0.0,"url":"laxmichhari.khagrachhari.gov.bd"},{"id":92,"district_id":10,"name":"Mohalchari","bn_name":"\u09ae\u09b9\u09be\u09b2\u099b\u09a1\u09bc\u09bf","lat":22.9360088,"lon":92.0294073,"url":"mohalchari.khagrachhari.gov.bd"},{"id":93,"district_id":10,"name":"Manikchari","bn_name":"\u09ae\u09be\u09a8\u09bf\u0995\u099b\u09a1\u09bc\u09bf","lat":22.849548,"lon":91.8413206,"url":"manikchari.khagrachhari.gov.bd"},{"id":94,"district_id":10,"name":"Ramgarh","bn_name":"\u09b0\u09be\u09ae\u0997\u09a1\u09bc","lat":23.59877595,"lon":85.5369156466,"url":"ramgarh.khagrachhari.gov.bd"},{"id":95,"district_id":10,"name":"Matiranga","bn_name":"\u09ae\u09be\u099f\u09bf\u09b0\u09be\u0999\u09cd\u0997\u09be","lat":23.0444506,"lon":91.8684916,"url":"matiranga.khagrachhari.gov.bd"},{"id":96,"district_id":10,"name":"Guimara","bn_name":"\u0997\u09c1\u0987\u09ae\u09be\u09b0\u09be","lat":42.8993048,"lon":-6.6896929,"url":"guimara.khagrachhari.gov.bd"},{"id":97,"district_id":11,"name":"Bandarban Sadar","bn_name":"\u09ac\u09be\u09a8\u09cd\u09a6\u09b0\u09ac\u09be\u09a8 \u09b8\u09a6\u09b0","lat":22.1972889,"lon":92.2217498,"url":"sadar.bandarban.gov.bd"},{"id":98,"district_id":11,"name":"Alikadam","bn_name":"\u0986\u09b2\u09c0\u0995\u09a6\u09ae","lat":21.6529421,"lon":92.3129482,"url":"alikadam.bandarban.gov.bd"},{"id":99,"district_id":11,"name":"Naikhongchhari","bn_name":"\u09a8\u09be\u0987\u0995\u09cd\u09b7\u09cd\u09af\u0982\u099b\u09dc\u09bf","lat":0.0,"lon":0.0,"url":"naikhongchhari.bandarban.gov.bd"},{"id":100,"district_id":11,"name":"Rowangchhari","bn_name":"\u09b0\u09cb\u09df\u09be\u0982\u099b\u09dc\u09bf","lat":22.17836555,"lon":92.3377878457,"url":"rowangchhari.bandarban.gov.bd"},{"id":101,"district_id":11,"name":"Lama","bn_name":"\u09b2\u09be\u09ae\u09be","lat":42.5767128,"lon":9.1717394,"url":"lama.bandarban.gov.bd"},{"id":102,"district_id":11,"name":"Ruma","bn_name":"\u09b0\u09c1\u09ae\u09be","lat":41.8933203,"lon":12.4829321,"url":"ruma.bandarban.gov.bd"},{"id":103,"district_id":11,"name":"Thanchi","bn_name":"\u09a5\u09be\u09a8\u099a\u09bf","lat":21.81560105,"lon":92.4392300365,"url":"thanchi.bandarban.gov.bd"},{"id":104,"district_id":12,"name":"Belkuchi","bn_name":"\u09ac\u09c7\u09b2\u0995\u09c1\u099a\u09bf","lat":24.2970659,"lon":89.6956757,"url":"belkuchi.sirajganj.gov.bd"},{"id":105,"district_id":12,"name":"Chauhali","bn_name":"\u099a\u09cc\u09b9\u09be\u09b2\u09bf","lat":0.0,"lon":0.0,"url":"chauhali.sirajganj.gov.bd"},{"id":106,"district_id":12,"name":"Kamarkhand","bn_name":"\u0995\u09be\u09ae\u09be\u09b0\u0996\u09a8\u09cd\u09a6","lat":0.0,"lon":0.0,"url":"kamarkhand.sirajganj.gov.bd"},{"id":107,"district_id":12,"name":"Kazipur","bn_name":"\u0995\u09be\u099c\u09c0\u09aa\u09c1\u09b0","lat":28.577913,"lon":76.8824641,"url":"kazipur.sirajganj.gov.bd"},{"id":108,"district_id":12,"name":"Raigonj","bn_name":"\u09b0\u09be\u09df\u0997\u099e\u09cd\u099c","lat":0.0,"lon":0.0,"url":"raigonj.sirajganj.gov.bd"},{"id":109,"district_id":12,"name":"Shahjadpur","bn_name":"\u09b6\u09be\u09b9\u099c\u09be\u09a6\u09aa\u09c1\u09b0","lat":23.7942325,"lon":90.4237343969,"url":"shahjadpur.sirajganj.gov.bd"},{"id":110,"district_id":12,"name":"Sirajganj Sadar","bn_name":"\u09b8\u09bf\u09b0\u09be\u099c\u0997\u099e\u09cd\u099c \u09b8\u09a6\u09b0","lat":0.0,"lon":0.0,"url":"sirajganjsadar.sirajganj.gov.bd"},{"id":111,"district_id":12,"name":"Tarash","bn_name":"\u09a4\u09be\u09dc\u09be\u09b6","lat":45.4665476,"lon":20.2005346,"url":"tarash.sirajganj.gov.bd"},{"id":112,"district_id":12,"name":"Ullapara","bn_name":"\u0989\u09b2\u09cd\u09b2\u09be\u09aa\u09be\u09dc\u09be","lat":24.4228721,"lon":89.3722144,"url":"ullapara.sirajganj.gov.bd"},{"id":113,"district_id":13,"name":"Sujanagar","bn_name":"\u09b8\u09c1\u099c\u09be\u09a8\u0997\u09b0","lat":24.39653615,"lon":88.604875946,"url":"sujanagar.pabna.gov.bd"},{"id":114,"district_id":13,"name":"Ishurdi","bn_name":"\u0988\u09b6\u09cd\u09ac\u09b0\u09a6\u09c0","lat":24.1285847,"lon":89.0653214,"url":"ishurdi.pabna.gov.bd"},{"id":115,"district_id":13,"name":"Bhangura","bn_name":"\u09ad\u09be\u0999\u09cd\u0997\u09c1\u09dc\u09be","lat":17.6939366,"lon":77.4456727,"url":"bhangura.pabna.gov.bd"},{"id":116,"district_id":13,"name":"Pabna Sadar","bn_name":"\u09aa\u09be\u09ac\u09a8\u09be \u09b8\u09a6\u09b0","lat":24.005,"lon":89.25,"url":"pabnasadar.pabna.gov.bd"},{"id":117,"district_id":13,"name":"Bera","bn_name":"\u09ac\u09c7\u09dc\u09be","lat":43.2813278,"lon":-1.6796472,"url":"bera.pabna.gov.bd"},{"id":118,"district_id":13,"name":"Atghoria","bn_name":"\u0986\u099f\u0998\u09b0\u09bf\u09df\u09be","lat":0.0,"lon":0.0,"url":"atghoria.pabna.gov.bd"},{"id":119,"district_id":13,"name":"Chatmohar","bn_name":"\u099a\u09be\u099f\u09ae\u09cb\u09b9\u09b0","lat":24.2313834,"lon":89.290206,"url":"chatmohar.pabna.gov.bd"},{"id":120,"district_id":13,"name":"Santhia","bn_name":"\u09b8\u09be\u0981\u09a5\u09bf\u09df\u09be","lat":45.366259,"lon":8.172627,"url":"santhia.pabna.gov.bd"},{"id":121,"district_id":13,"name":"Faridpur","bn_name":"\u09ab\u09b0\u09bf\u09a6\u09aa\u09c1\u09b0","lat":28.19334815,"lon":79.5419500813,"url":"faridpur.pabna.gov.bd"},{"id":122,"district_id":14,"name":"Kahaloo","bn_name":"\u0995\u09be\u09b9\u09be\u09b2\u09c1","lat":0.0,"lon":0.0,"url":"kahaloo.bogra.gov.bd"},{"id":123,"district_id":14,"name":"Bogra Sadar","bn_name":"\u09ac\u0997\u09c1\u09dc\u09be \u09b8\u09a6\u09b0","lat":24.850206,"lon":89.3726537251,"url":"sadar.bogra.gov.bd"},{"id":124,"district_id":14,"name":"Shariakandi","bn_name":"\u09b8\u09be\u09b0\u09bf\u09df\u09be\u0995\u09be\u09a8\u09cd\u09a6\u09bf","lat":0.0,"lon":0.0,"url":"shariakandi.bogra.gov.bd"},{"id":125,"district_id":14,"name":"Shajahanpur","bn_name":"\u09b6\u09be\u099c\u09be\u09b9\u09be\u09a8\u09aa\u09c1\u09b0","lat":23.7414996,"lon":90.4215495,"url":"shajahanpur.bogra.gov.bd"},{"id":126,"district_id":14,"name":"Dupchanchia","bn_name":"\u09a6\u09c1\u09aa\u099a\u09be\u099a\u09bf\u0981\u09df\u09be","lat":24.8756907,"lon":89.1732126,"url":"dupchanchia.bogra.gov.bd"},{"id":127,"district_id":14,"name":"Adamdighi","bn_name":"\u0986\u09a6\u09ae\u09a6\u09bf\u0998\u09bf","lat":24.8191808,"lon":89.0440428,"url":"adamdighi.bogra.gov.bd"},{"id":128,"district_id":14,"name":"Nondigram","bn_name":"\u09a8\u09a8\u09cd\u09a6\u09bf\u0997\u09cd\u09b0\u09be\u09ae","lat":0.0,"lon":0.0,"url":"nondigram.bogra.gov.bd"},{"id":129,"district_id":14,"name":"Sonatala","bn_name":"\u09b8\u09cb\u09a8\u09be\u09a4\u09b2\u09be","lat":25.0439508,"lon":89.4976649,"url":"sonatala.bogra.gov.bd"},{"id":130,"district_id":14,"name":"Dhunot","bn_name":"\u09a7\u09c1\u09a8\u099f","lat":24.66263595,"lon":89.4203709884,"url":"dhunot.bogra.gov.bd"},{"id":131,"district_id":14,"name":"Gabtali","bn_name":"\u0997\u09be\u09ac\u09a4\u09b2\u09c0","lat":24.8770229,"lon":89.4512705,"url":"gabtali.bogra.gov.bd"},{"id":132,"district_id":14,"name":"Sherpur","bn_name":"\u09b6\u09c7\u09b0\u09aa\u09c1\u09b0","lat":32.5981749,"lon":74.4925735,"url":"sherpur.bogra.gov.bd"},{"id":133,"district_id":14,"name":"Shibganj","bn_name":"\u09b6\u09bf\u09ac\u0997\u099e\u09cd\u099c","lat":25.0140345,"lon":89.359789,"url":"shibganj.bogra.gov.bd"},{"id":134,"district_id":15,"name":"Paba","bn_name":"\u09aa\u09ac\u09be","lat":22.8140879,"lon":87.6788463,"url":"paba.rajshahi.gov.bd"},{"id":135,"district_id":15,"name":"Durgapur","bn_name":"\u09a6\u09c1\u09b0\u09cd\u0997\u09be\u09aa\u09c1\u09b0","lat":23.5350475,"lon":87.3380425,"url":"durgapur.rajshahi.gov.bd"},{"id":136,"district_id":15,"name":"Mohonpur","bn_name":"\u09ae\u09cb\u09b9\u09a8\u09aa\u09c1\u09b0","lat":23.7750467,"lon":90.3606871,"url":"mohonpur.rajshahi.gov.bd"},{"id":137,"district_id":15,"name":"Charghat","bn_name":"\u099a\u09be\u09b0\u0998\u09be\u099f","lat":24.2850601,"lon":88.7469909,"url":"charghat.rajshahi.gov.bd"},{"id":138,"district_id":15,"name":"Puthia","bn_name":"\u09aa\u09c1\u09a0\u09bf\u09af\u09bc\u09be","lat":24.3693187,"lon":88.8421421,"url":"puthia.rajshahi.gov.bd"},{"id":139,"district_id":15,"name":"Bagha","bn_name":"\u09ac\u09be\u0998\u09be","lat":23.7191528,"lon":86.4106599,"url":"bagha.rajshahi.gov.bd"},{"id":140,"district_id":15,"name":"Godagari","bn_name":"\u0997\u09cb\u09a6\u09be\u0997\u09be\u09a1\u09bc\u09c0","lat":24.4581726,"lon":88.3285448,"url":"godagari.rajshahi.gov.bd"},{"id":141,"district_id":15,"name":"Tanore","bn_name":"\u09a4\u09be\u09a8\u09cb\u09b0","lat":24.5891475,"lon":88.576128,"url":"tanore.rajshahi.gov.bd"},{"id":142,"district_id":15,"name":"Bagmara","bn_name":"\u09ac\u09be\u0997\u09ae\u09be\u09b0\u09be","lat":22.7999412,"lon":89.5617276,"url":"bagmara.rajshahi.gov.bd"},{"id":143,"district_id":16,"name":"Natore Sadar","bn_name":"\u09a8\u09be\u099f\u09cb\u09b0 \u09b8\u09a6\u09b0","lat":24.4165456,"lon":88.98257,"url":"natoresadar.natore.gov.bd"},{"id":144,"district_id":16,"name":"Singra","bn_name":"\u09b8\u09bf\u0982\u09a1\u09bc\u09be","lat":40.655641,"lon":-1.3118667,"url":"singra.natore.gov.bd"},{"id":145,"district_id":16,"name":"Baraigram","bn_name":"\u09ac\u09a1\u09bc\u09be\u0987\u0997\u09cd\u09b0\u09be\u09ae","lat":24.6806549,"lon":92.3431778,"url":"baraigram.natore.gov.bd"},{"id":146,"district_id":16,"name":"Bagatipara","bn_name":"\u09ac\u09be\u0997\u09be\u09a4\u09bf\u09aa\u09be\u09a1\u09bc\u09be","lat":24.3694334,"lon":88.9521547,"url":"bagatipara.natore.gov.bd"},{"id":147,"district_id":16,"name":"Lalpur","bn_name":"\u09b2\u09be\u09b2\u09aa\u09c1\u09b0","lat":34.333393,"lon":71.024591,"url":"lalpur.natore.gov.bd"},{"id":148,"district_id":16,"name":"Gurudaspur","bn_name":"\u0997\u09c1\u09b0\u09c1\u09a6\u09be\u09b8\u09aa\u09c1\u09b0","lat":24.3679529,"lon":89.2325129,"url":"gurudaspur.natore.gov.bd"},{"id":149,"district_id":16,"name":"Naldanga","bn_name":"\u09a8\u09b2\u09a1\u09be\u0999\u09cd\u0997\u09be","lat":25.4847385,"lon":89.4710442,"url":"naldanga.natore.gov.bd"},{"id":150,"district_id":17,"name":"Akkelpur","bn_name":"\u0986\u0995\u09cd\u0995\u09c7\u09b2\u09aa\u09c1\u09b0","lat":24.9667025,"lon":89.0169358,"url":"akkelpur.joypurhat.gov.bd"},{"id":151,"district_id":17,"name":"Kalai","bn_name":"\u0995\u09be\u09b2\u09be\u0987","lat":50.9488,"lon":1.87468,"url":"kalai.joypurhat.gov.bd"},{"id":152,"district_id":17,"name":"Khetlal","bn_name":"\u0995\u09cd\u09b7\u09c7\u09a4\u09b2\u09be\u09b2","lat":24.9261107,"lon":89.3217673,"url":"khetlal.joypurhat.gov.bd"},{"id":153,"district_id":17,"name":"Panchbibi","bn_name":"\u09aa\u09be\u0981\u099a\u09ac\u09bf\u09ac\u09bf","lat":25.1872769,"lon":89.0196664,"url":"panchbibi.joypurhat.gov.bd"},{"id":154,"district_id":17,"name":"Joypurhat Sadar","bn_name":"\u099c\u09df\u09aa\u09c1\u09b0\u09b9\u09be\u099f \u09b8\u09a6\u09b0","lat":0.0,"lon":0.0,"url":"joypurhatsadar.joypurhat.gov.bd"},{"id":155,"district_id":18,"name":"Chapainawabganj Sadar","bn_name":"\u099a\u09be\u0981\u09aa\u09be\u0987\u09a8\u09ac\u09be\u09ac\u0997\u099e\u09cd\u099c \u09b8\u09a6\u09b0","lat":0.0,"lon":0.0,"url":"chapainawabganjsadar.chapainawabganj.gov.bd"},{"id":156,"district_id":18,"name":"Gomostapur","bn_name":"\u0997\u09cb\u09ae\u09b8\u09cd\u09a4\u09be\u09aa\u09c1\u09b0","lat":0.0,"lon":0.0,"url":"gomostapur.chapainawabganj.gov.bd"},{"id":157,"district_id":18,"name":"Nachol","bn_name":"\u09a8\u09be\u099a\u09cb\u09b2","lat":0.0,"lon":0.0,"url":"nachol.chapainawabganj.gov.bd"},{"id":158,"district_id":18,"name":"Bholahat","bn_name":"\u09ad\u09cb\u09b2\u09be\u09b9\u09be\u099f","lat":24.7716996,"lon":88.1891552,"url":"bholahat.chapainawabganj.gov.bd"},{"id":159,"district_id":18,"name":"Shibganj","bn_name":"\u09b6\u09bf\u09ac\u0997\u099e\u09cd\u099c","lat":25.0140345,"lon":89.359789,"url":"shibganj.chapainawabganj.gov.bd"},{"id":160,"district_id":19,"name":"Mohadevpur","bn_name":"\u09ae\u09b9\u09be\u09a6\u09c7\u09ac\u09aa\u09c1\u09b0","lat":24.9151918,"lon":88.7456574,"url":"mohadevpur.naogaon.gov.bd"},{"id":161,"district_id":19,"name":"Badalgachi","bn_name":"\u09ac\u09a6\u09b2\u0997\u09be\u099b\u09c0","lat":24.9682268,"lon":89.0291941,"url":"badalgachi.naogaon.gov.bd"},{"id":162,"district_id":19,"name":"Patnitala","bn_name":"\u09aa\u09a4\u09cd\u09a8\u09bf\u09a4\u09b2\u09be","lat":25.0289673,"lon":88.7034878,"url":"patnitala.naogaon.gov.bd"},{"id":163,"district_id":19,"name":"Dhamoirhat","bn_name":"\u09a7\u09be\u09ae\u0987\u09b0\u09b9\u09be\u099f","lat":25.1559873,"lon":88.832894,"url":"dhamoirhat.naogaon.gov.bd"},{"id":164,"district_id":19,"name":"Niamatpur","bn_name":"\u09a8\u09bf\u09df\u09be\u09ae\u09a4\u09aa\u09c1\u09b0","lat":30.5111779,"lon":76.6339946,"url":"niamatpur.naogaon.gov.bd"},{"id":165,"district_id":19,"name":"Manda","bn_name":"\u09ae\u09be\u09a8\u09cd\u09a6\u09be","lat":11.6750639,"lon":-12.6257485179,"url":"manda.naogaon.gov.bd"},{"id":166,"district_id":19,"name":"Atrai","bn_name":"\u0986\u09a4\u09cd\u09b0\u09be\u0987","lat":25.8245334,"lon":88.7298259,"url":"atrai.naogaon.gov.bd"},{"id":167,"district_id":19,"name":"Raninagar","bn_name":"\u09b0\u09be\u09a3\u09c0\u09a8\u0997\u09b0","lat":23.9045257,"lon":89.5685712,"url":"raninagar.naogaon.gov.bd"},{"id":168,"district_id":19,"name":"Naogaon Sadar","bn_name":"\u09a8\u0993\u0997\u09be\u0981 \u09b8\u09a6\u09b0","lat":24.9129436,"lon":88.7532124289,"url":"naogaonsadar.naogaon.gov.bd"},{"id":169,"district_id":19,"name":"Porsha","bn_name":"\u09aa\u09cb\u09b0\u09b6\u09be","lat":60.7239738,"lon":44.4888189,"url":"porsha.naogaon.gov.bd"},{"id":170,"district_id":19,"name":"Sapahar","bn_name":"\u09b8\u09be\u09aa\u09be\u09b9\u09be\u09b0","lat":0.0,"lon":0.0,"url":"sapahar.naogaon.gov.bd"},{"id":171,"district_id":20,"name":"Manirampur","bn_name":"\u09ae\u09a3\u09bf\u09b0\u09be\u09ae\u09aa\u09c1\u09b0","lat":23.0260235,"lon":89.2366229,"url":"manirampur.jessore.gov.bd"},{"id":172,"district_id":20,"name":"Abhaynagar","bn_name":"\u0985\u09ad\u09df\u09a8\u0997\u09b0","lat":23.8454634,"lon":91.2888352,"url":"abhaynagar.jessore.gov.bd"},{"id":173,"district_id":20,"name":"Bagherpara","bn_name":"\u09ac\u09be\u0998\u09be\u09b0\u09aa\u09be\u09dc\u09be","lat":23.2216233,"lon":89.3409129,"url":"bagherpara.jessore.gov.bd"},{"id":174,"district_id":20,"name":"Chougachha","bn_name":"\u099a\u09cc\u0997\u09be\u099b\u09be","lat":0.0,"lon":0.0,"url":"chougachha.jessore.gov.bd"},{"id":175,"district_id":20,"name":"Jhikargacha","bn_name":"\u099d\u09bf\u0995\u09b0\u0997\u09be\u099b\u09be","lat":23.1001273,"lon":89.0987978,"url":"jhikargacha.jessore.gov.bd"},{"id":176,"district_id":20,"name":"Keshabpur","bn_name":"\u0995\u09c7\u09b6\u09ac\u09aa\u09c1\u09b0","lat":22.918348,"lon":89.2112389,"url":"keshabpur.jessore.gov.bd"},{"id":177,"district_id":20,"name":"Jessore Sadar","bn_name":"\u09af\u09b6\u09cb\u09b0 \u09b8\u09a6\u09b0","lat":23.1682713,"lon":89.2098441,"url":"sadar.jessore.gov.bd"},{"id":178,"district_id":20,"name":"Sharsha","bn_name":"\u09b6\u09be\u09b0\u09cd\u09b6\u09be","lat":49.783333,"lon":79.7,"url":"sharsha.jessore.gov.bd"},{"id":179,"district_id":21,"name":"Assasuni","bn_name":"\u0986\u09b6\u09be\u09b6\u09c1\u09a8\u09bf","lat":22.5456097,"lon":89.1743059,"url":"assasuni.satkhira.gov.bd"},{"id":180,"district_id":21,"name":"Debhata","bn_name":"\u09a6\u09c7\u09ac\u09b9\u09be\u099f\u09be","lat":0.0,"lon":0.0,"url":"debhata.satkhira.gov.bd"},{"id":181,"district_id":21,"name":"Kalaroa","bn_name":"\u0995\u09b2\u09be\u09b0\u09cb\u09df\u09be","lat":22.8784779,"lon":89.0471741,"url":"kalaroa.satkhira.gov.bd"},{"id":182,"district_id":21,"name":"Satkhira Sadar","bn_name":"\u09b8\u09be\u09a4\u0995\u09cd\u09b7\u09c0\u09b0\u09be \u09b8\u09a6\u09b0","lat":0.0,"lon":0.0,"url":"satkhirasadar.satkhira.gov.bd"},{"id":183,"district_id":21,"name":"Shyamnagar","bn_name":"\u09b6\u09cd\u09af\u09be\u09ae\u09a8\u0997\u09b0","lat":22.8285164,"lon":88.3801893,"url":"shyamnagar.satkhira.gov.bd"},{"id":184,"district_id":21,"name":"Tala","bn_name":"\u09a4\u09be\u09b2\u09be","lat":40.5898491,"lon":-5.53579,"url":"tala.satkhira.gov.bd"},{"id":185,"district_id":21,"name":"Kaliganj","bn_name":"\u0995\u09be\u09b2\u09bf\u0997\u099e\u09cd\u099c","lat":23.71167265,"lon":88.2897633318,"url":"kaliganj.satkhira.gov.bd"},{"id":186,"district_id":22,"name":"Mujibnagar","bn_name":"\u09ae\u09c1\u099c\u09bf\u09ac\u09a8\u0997\u09b0","lat":23.6475127,"lon":88.5947880316,"url":"mujibnagar.meherpur.gov.bd"},{"id":187,"district_id":22,"name":"Meherpur Sadar","bn_name":"\u09ae\u09c7\u09b9\u09c7\u09b0\u09aa\u09c1\u09b0 \u09b8\u09a6\u09b0","lat":0.0,"lon":0.0,"url":"meherpursadar.meherpur.gov.bd"},{"id":188,"district_id":22,"name":"Gangni","bn_name":"\u0997\u09be\u0982\u09a8\u09c0","lat":32.8381206,"lon":91.4093248,"url":"gangni.meherpur.gov.bd"},{"id":189,"district_id":23,"name":"Narail Sadar","bn_name":"\u09a8\u09dc\u09be\u0987\u09b2 \u09b8\u09a6\u09b0","lat":0.0,"lon":0.0,"url":"narailsadar.narail.gov.bd"},{"id":190,"district_id":23,"name":"Lohagara","bn_name":"\u09b2\u09cb\u09b9\u09be\u0997\u09dc\u09be","lat":25.8514804,"lon":87.8442549,"url":"lohagara.narail.gov.bd"},{"id":191,"district_id":23,"name":"Kalia","bn_name":"\u0995\u09be\u09b2\u09bf\u09df\u09be","lat":60.3226841,"lon":60.0819128,"url":"kalia.narail.gov.bd"},{"id":192,"district_id":24,"name":"Chuadanga Sadar","bn_name":"\u099a\u09c1\u09af\u09bc\u09be\u09a1\u09be\u0999\u09cd\u0997\u09be \u09b8\u09a6\u09b0","lat":23.63515105,"lon":88.8473621941,"url":"chuadangasadar.chuadanga.gov.bd"},{"id":193,"district_id":24,"name":"Alamdanga","bn_name":"\u0986\u09b2\u09ae\u09a1\u09be\u0999\u09cd\u0997\u09be","lat":23.7656496,"lon":88.9447428,"url":"alamdanga.chuadanga.gov.bd"},{"id":194,"district_id":24,"name":"Damurhuda","bn_name":"\u09a6\u09be\u09ae\u09c1\u09a1\u09bc\u09b9\u09c1\u09a6\u09be","lat":23.6142025,"lon":88.7627066,"url":"damurhuda.chuadanga.gov.bd"},{"id":195,"district_id":24,"name":"Jibannagar","bn_name":"\u099c\u09c0\u09ac\u09a8\u09a8\u0997\u09b0","lat":0.0,"lon":0.0,"url":"jibannagar.chuadanga.gov.bd"},{"id":196,"district_id":25,"name":"Kushtia Sadar","bn_name":"\u0995\u09c1\u09b7\u09cd\u099f\u09bf\u09df\u09be \u09b8\u09a6\u09b0","lat":0.0,"lon":0.0,"url":"kushtiasadar.kushtia.gov.bd"},{"id":197,"district_id":25,"name":"Kumarkhali","bn_name":"\u0995\u09c1\u09ae\u09be\u09b0\u0996\u09be\u09b2\u09c0","lat":23.8615887,"lon":89.2413168,"url":"kumarkhali.kushtia.gov.bd"},{"id":198,"district_id":25,"name":"Khoksa","bn_name":"\u0996\u09cb\u0995\u09b8\u09be","lat":18.0754445,"lon":102.9122937,"url":"khoksa.kushtia.gov.bd"},{"id":199,"district_id":25,"name":"Mirpur","bn_name":"\u09ae\u09bf\u09b0\u09aa\u09c1\u09b0","lat":33.1486351,"lon":73.7482102,"url":"mirpurkushtia.kushtia.gov.bd"},{"id":200,"district_id":25,"name":"Daulatpur","bn_name":"\u09a6\u09cc\u09b2\u09a4\u09aa\u09c1\u09b0","lat":28.4697488,"lon":81.1358770263,"url":"daulatpur.kushtia.gov.bd"},{"id":201,"district_id":25,"name":"Bheramara","bn_name":"\u09ad\u09c7\u09a1\u09bc\u09be\u09ae\u09be\u09b0\u09be","lat":24.0202276,"lon":88.9971604,"url":"bheramara.kushtia.gov.bd"},{"id":202,"district_id":26,"name":"Shalikha","bn_name":"\u09b6\u09be\u09b2\u09bf\u0996\u09be","lat":51.9979084,"lon":104.5846939,"url":"shalikha.magura.gov.bd"},{"id":203,"district_id":26,"name":"Sreepur","bn_name":"\u09b6\u09cd\u09b0\u09c0\u09aa\u09c1\u09b0","lat":26.86492655,"lon":85.7831169174,"url":"sreepur.magura.gov.bd"},{"id":204,"district_id":26,"name":"Magura Sadar","bn_name":"\u09ae\u09be\u0997\u09c1\u09b0\u09be \u09b8\u09a6\u09b0","lat":-4.5786201,"lon":119.8243834,"url":"magurasadar.magura.gov.bd"},{"id":205,"district_id":26,"name":"Mohammadpur","bn_name":"\u09ae\u09b9\u09ae\u09cd\u09ae\u09a6\u09aa\u09c1\u09b0","lat":28.2867452,"lon":76.2792598,"url":"mohammadpur.magura.gov.bd"},{"id":206,"district_id":27,"name":"Paikgasa","bn_name":"\u09aa\u09be\u0987\u0995\u0997\u09be\u099b\u09be","lat":22.7353083,"lon":89.2666824,"url":"paikgasa.khulna.gov.bd"},{"id":207,"district_id":27,"name":"Fultola","bn_name":"\u09ab\u09c1\u09b2\u09a4\u09b2\u09be","lat":23.8690465,"lon":90.1476495,"url":"fultola.khulna.gov.bd"},{"id":208,"district_id":27,"name":"Digholia","bn_name":"\u09a6\u09bf\u0998\u09b2\u09bf\u09df\u09be","lat":22.8904648,"lon":89.5366911,"url":"digholia.khulna.gov.bd"},{"id":209,"district_id":27,"name":"Rupsha","bn_name":"\u09b0\u09c2\u09aa\u09b8\u09be","lat":29.2570964,"lon":81.5281144935,"url":"rupsha.khulna.gov.bd"},{"id":210,"district_id":27,"name":"Terokhada","bn_name":"\u09a4\u09c7\u09b0\u0996\u09be\u09a6\u09be","lat":22.939248,"lon":89.6736478,"url":"terokhada.khulna.gov.bd"},{"id":211,"district_id":27,"name":"Dumuria","bn_name":"\u09a1\u09c1\u09ae\u09c1\u09b0\u09bf\u09df\u09be","lat":22.8163016,"lon":89.4117044,"url":"dumuria.khulna.gov.bd"},{"id":212,"district_id":27,"name":"Botiaghata","bn_name":"\u09ac\u099f\u09bf\u09af\u09bc\u09be\u0998\u09be\u099f\u09be","lat":0.0,"lon":0.0,"url":"botiaghata.khulna.gov.bd"},{"id":213,"district_id":27,"name":"Dakop","bn_name":"\u09a6\u09be\u0995\u09cb\u09aa","lat":22.6057911,"lon":89.4945166,"url":"dakop.khulna.gov.bd"},{"id":214,"district_id":27,"name":"Koyra","bn_name":"\u0995\u09df\u09b0\u09be","lat":22.3881496,"lon":89.3260789,"url":"koyra.khulna.gov.bd"},{"id":215,"district_id":28,"name":"Fakirhat","bn_name":"\u09ab\u0995\u09bf\u09b0\u09b9\u09be\u099f","lat":22.7809883,"lon":89.712665,"url":"fakirhat.bagerhat.gov.bd"},{"id":216,"district_id":28,"name":"Bagerhat Sadar","bn_name":"\u09ac\u09be\u0997\u09c7\u09b0\u09b9\u09be\u099f \u09b8\u09a6\u09b0","lat":22.6554187,"lon":89.7971746,"url":"sadar.bagerhat.gov.bd"},{"id":217,"district_id":28,"name":"Mollahat","bn_name":"\u09ae\u09cb\u09b2\u09cd\u09b2\u09be\u09b9\u09be\u099f","lat":22.9576646,"lon":89.6798611,"url":"mollahat.bagerhat.gov.bd"},{"id":218,"district_id":28,"name":"Sarankhola","bn_name":"\u09b6\u09b0\u09a3\u0996\u09cb\u09b2\u09be","lat":0.0,"lon":0.0,"url":"sarankhola.bagerhat.gov.bd"},{"id":219,"district_id":28,"name":"Rampal","bn_name":"\u09b0\u09be\u09ae\u09aa\u09be\u09b2","lat":22.5892885,"lon":89.6377943,"url":"rampal.bagerhat.gov.bd"},{"id":220,"district_id":28,"name":"Morrelganj","bn_name":"\u09ae\u09cb\u09dc\u09c7\u09b2\u0997\u099e\u09cd\u099c","lat":0.0,"lon":0.0,"url":"morrelganj.bagerhat.gov.bd"},{"id":221,"district_id":28,"name":"Kachua","bn_name":"\u0995\u099a\u09c1\u09df\u09be","lat":23.1504621,"lon":89.2700099,"url":"kachua.bagerhat.gov.bd"},{"id":222,"district_id":28,"name":"Mongla","bn_name":"\u09ae\u09cb\u0982\u09b2\u09be","lat":22.4679228,"lon":89.6040074,"url":"mongla.bagerhat.gov.bd"},{"id":223,"district_id":28,"name":"Chitalmari","bn_name":"\u099a\u09bf\u09a4\u09b2\u09ae\u09be\u09b0\u09c0","lat":22.788227,"lon":89.8785812,"url":"chitalmari.bagerhat.gov.bd"},{"id":224,"district_id":29,"name":"Jhenaidah Sadar","bn_name":"\u099d\u09bf\u09a8\u09be\u0987\u09a6\u09b9 \u09b8\u09a6\u09b0","lat":23.5300032,"lon":89.1722211443,"url":"sadar.jhenaidah.gov.bd"},{"id":225,"district_id":29,"name":"Shailkupa","bn_name":"\u09b6\u09c8\u09b2\u0995\u09c1\u09aa\u09be","lat":23.6883293,"lon":89.2540681,"url":"shailkupa.jhenaidah.gov.bd"},{"id":226,"district_id":29,"name":"Harinakundu","bn_name":"\u09b9\u09b0\u09bf\u09a3\u09be\u0995\u09c1\u09a8\u09cd\u09a1\u09c1","lat":23.5495244,"lon":89.167518,"url":"harinakundu.jhenaidah.gov.bd"},{"id":227,"district_id":29,"name":"Kaliganj","bn_name":"\u0995\u09be\u09b2\u09c0\u0997\u099e\u09cd\u099c","lat":23.71167265,"lon":88.2897633318,"url":"kaliganj.jhenaidah.gov.bd"},{"id":228,"district_id":29,"name":"Kotchandpur","bn_name":"\u0995\u09cb\u099f\u099a\u09be\u0981\u09a6\u09aa\u09c1\u09b0","lat":23.411486,"lon":89.0054199,"url":"kotchandpur.jhenaidah.gov.bd"},{"id":229,"district_id":29,"name":"Moheshpur","bn_name":"\u09ae\u09b9\u09c7\u09b6\u09aa\u09c1\u09b0","lat":24.7336963,"lon":91.2823319,"url":"moheshpur.jhenaidah.gov.bd"},{"id":230,"district_id":30,"name":"Jhalakathi Sadar","bn_name":"\u099d\u09be\u09b2\u0995\u09be\u09a0\u09bf \u09b8\u09a6\u09b0","lat":22.6843646,"lon":90.1911050445,"url":"sadar.jhalakathi.gov.bd"},{"id":231,"district_id":30,"name":"Kathalia","bn_name":"\u0995\u09be\u09a0\u09be\u09b2\u09bf\u09df\u09be","lat":23.3745946,"lon":91.3580394151,"url":"kathalia.jhalakathi.gov.bd"},{"id":232,"district_id":30,"name":"Nalchity","bn_name":"\u09a8\u09b2\u099b\u09bf\u099f\u09bf","lat":22.6347382,"lon":90.2703307,"url":"nalchity.jhalakathi.gov.bd"},{"id":233,"district_id":30,"name":"Rajapur","bn_name":"\u09b0\u09be\u099c\u09be\u09aa\u09c1\u09b0","lat":16.63868985,"lon":73.5460518951,"url":"rajapur.jhalakathi.gov.bd"},{"id":234,"district_id":31,"name":"Bauphal","bn_name":"\u09ac\u09be\u0989\u09ab\u09b2","lat":22.4168127,"lon":90.5589509,"url":"bauphal.patuakhali.gov.bd"},{"id":235,"district_id":31,"name":"Patuakhali Sadar","bn_name":"\u09aa\u099f\u09c1\u09df\u09be\u0996\u09be\u09b2\u09c0 \u09b8\u09a6\u09b0","lat":22.3589664,"lon":90.3310543,"url":"sadar.patuakhali.gov.bd"},{"id":236,"district_id":31,"name":"Dumki","bn_name":"\u09a6\u09c1\u09ae\u0995\u09bf","lat":28.8690744,"lon":75.4455947,"url":"dumki.patuakhali.gov.bd"},{"id":237,"district_id":31,"name":"Dashmina","bn_name":"\u09a6\u09b6\u09ae\u09bf\u09a8\u09be","lat":22.2832457,"lon":90.5622027,"url":"dashmina.patuakhali.gov.bd"},{"id":238,"district_id":31,"name":"Kalapara","bn_name":"\u0995\u09b2\u09be\u09aa\u09be\u09a1\u09bc\u09be","lat":21.9860055,"lon":90.2232185,"url":"kalapara.patuakhali.gov.bd"},{"id":239,"district_id":31,"name":"Mirzaganj","bn_name":"\u09ae\u09bf\u09b0\u09cd\u099c\u09be\u0997\u099e\u09cd\u099c","lat":24.3968692,"lon":86.1662221,"url":"mirzaganj.patuakhali.gov.bd"},{"id":240,"district_id":31,"name":"Galachipa","bn_name":"\u0997\u09b2\u09be\u099a\u09bf\u09aa\u09be","lat":22.1252417,"lon":90.4106998,"url":"galachipa.patuakhali.gov.bd"},{"id":241,"district_id":31,"name":"Rangabali","bn_name":"\u09b0\u09be\u0999\u09cd\u0997\u09be\u09ac\u09be\u09b2\u09c0","lat":21.93262985,"lon":90.4484917436,"url":"rangabali.patuakhali.gov.bd"},{"id":242,"district_id":32,"name":"Pirojpur Sadar","bn_name":"\u09aa\u09bf\u09b0\u09cb\u099c\u09aa\u09c1\u09b0 \u09b8\u09a6\u09b0","lat":22.5789611,"lon":89.9691003,"url":"sadar.pirojpur.gov.bd"},{"id":243,"district_id":32,"name":"Nazirpur","bn_name":"\u09a8\u09be\u099c\u09bf\u09b0\u09aa\u09c1\u09b0","lat":25.0770539,"lon":90.8232318,"url":"nazirpur.pirojpur.gov.bd"},{"id":244,"district_id":32,"name":"Kawkhali","bn_name":"\u0995\u09be\u0989\u0996\u09be\u09b2\u09c0","lat":22.6261283,"lon":90.0592775,"url":"kawkhali.pirojpur.gov.bd"},{"id":245,"district_id":32,"name":"Zianagar","bn_name":"\u099c\u09bf\u09df\u09be\u09a8\u0997\u09b0","lat":22.4839617,"lon":89.9643591,"url":"zianagar.pirojpur.gov.bd"},{"id":246,"district_id":32,"name":"Bhandaria","bn_name":"\u09ad\u09be\u09a8\u09cd\u09a1\u09be\u09b0\u09bf\u09df\u09be","lat":23.71958,"lon":83.8672009047,"url":"bhandaria.pirojpur.gov.bd"},{"id":247,"district_id":32,"name":"Mathbaria","bn_name":"\u09ae\u09a0\u09ac\u09be\u09dc\u09c0\u09df\u09be","lat":22.2875917,"lon":89.9592718,"url":"mathbaria.pirojpur.gov.bd"},{"id":248,"district_id":32,"name":"Nesarabad","bn_name":"\u09a8\u09c7\u099b\u09be\u09b0\u09be\u09ac\u09be\u09a6","lat":22.73188895,"lon":90.1022273808,"url":"nesarabad.pirojpur.gov.bd"},{"id":249,"district_id":33,"name":"Barisal Sadar","bn_name":"\u09ac\u09b0\u09bf\u09b6\u09be\u09b2 \u09b8\u09a6\u09b0","lat":22.7046314,"lon":90.3711417,"url":"barisalsadar.barisal.gov.bd"},{"id":250,"district_id":33,"name":"Bakerganj","bn_name":"\u09ac\u09be\u0995\u09c7\u09b0\u0997\u099e\u09cd\u099c","lat":22.5406451,"lon":90.3336522,"url":"bakerganj.barisal.gov.bd"},{"id":251,"district_id":33,"name":"Babuganj","bn_name":"\u09ac\u09be\u09ac\u09c1\u0997\u099e\u09cd\u099c","lat":22.8332906,"lon":90.3129710484,"url":"babuganj.barisal.gov.bd"},{"id":252,"district_id":33,"name":"Wazirpur","bn_name":"\u0989\u099c\u09bf\u09b0\u09aa\u09c1\u09b0","lat":28.1477742,"lon":79.8626245,"url":"wazirpur.barisal.gov.bd"},{"id":253,"district_id":33,"name":"Banaripara","bn_name":"\u09ac\u09be\u09a8\u09be\u09b0\u09c0\u09aa\u09be\u09dc\u09be","lat":22.7834892,"lon":90.159408,"url":"banaripara.barisal.gov.bd"},{"id":254,"district_id":33,"name":"Gournadi","bn_name":"\u0997\u09cc\u09b0\u09a8\u09a6\u09c0","lat":22.9751303,"lon":90.2309736,"url":"gournadi.barisal.gov.bd"},{"id":255,"district_id":33,"name":"Agailjhara","bn_name":"\u0986\u0997\u09c8\u09b2\u099d\u09be\u09dc\u09be","lat":22.9718503,"lon":90.1587931,"url":"agailjhara.barisal.gov.bd"},{"id":256,"district_id":33,"name":"Mehendiganj","bn_name":"\u09ae\u09c7\u09b9\u09c7\u09a8\u09cd\u09a6\u09bf\u0997\u099e\u09cd\u099c","lat":22.823263,"lon":90.5275969,"url":"mehendiganj.barisal.gov.bd"},{"id":257,"district_id":33,"name":"Muladi","bn_name":"\u09ae\u09c1\u09b2\u09be\u09a6\u09c0","lat":22.9132829,"lon":90.4108006,"url":"muladi.barisal.gov.bd"},{"id":258,"district_id":33,"name":"Hizla","bn_name":"\u09b9\u09bf\u099c\u09b2\u09be","lat":22.8147163,"lon":89.8934841,"url":"hizla.barisal.gov.bd"},{"id":259,"district_id":34,"name":"Bhola Sadar","bn_name":"\u09ad\u09cb\u09b2\u09be \u09b8\u09a6\u09b0","lat":22.689095,"lon":90.6405813,"url":"sadar.bhola.gov.bd"},{"id":260,"district_id":34,"name":"Borhan Sddin","bn_name":"\u09ac\u09cb\u09b0\u09b9\u09be\u09a8 \u0989\u09a6\u09cd\u09a6\u09bf\u09a8","lat":0.0,"lon":0.0,"url":"borhanuddin.bhola.gov.bd"},{"id":261,"district_id":34,"name":"Charfesson","bn_name":"\u099a\u09b0\u09ab\u09cd\u09af\u09be\u09b6\u09a8","lat":0.0,"lon":0.0,"url":"charfesson.bhola.gov.bd"},{"id":262,"district_id":34,"name":"Doulatkhan","bn_name":"\u09a6\u09cc\u09b2\u09a4\u0996\u09be\u09a8","lat":22.67472425,"lon":90.7423039952,"url":"doulatkhan.bhola.gov.bd"},{"id":263,"district_id":34,"name":"Monpura","bn_name":"\u09ae\u09a8\u09aa\u09c1\u09b0\u09be","lat":23.83873805,"lon":90.3560013931,"url":"monpura.bhola.gov.bd"},{"id":264,"district_id":34,"name":"Tazumuddin","bn_name":"\u09a4\u099c\u09c1\u09ae\u09a6\u09cd\u09a6\u09bf\u09a8","lat":22.45212205,"lon":90.8880696799,"url":"tazumuddin.bhola.gov.bd"},{"id":265,"district_id":34,"name":"Lalmohan","bn_name":"\u09b2\u09be\u09b2\u09ae\u09cb\u09b9\u09a8","lat":22.3410585,"lon":90.7334333,"url":"lalmohan.bhola.gov.bd"},{"id":266,"district_id":35,"name":"Amtali","bn_name":"\u0986\u09ae\u09a4\u09b2\u09c0","lat":22.132863,"lon":90.2311484,"url":"amtali.barguna.gov.bd"},{"id":267,"district_id":35,"name":"Barguna Sadar","bn_name":"\u09ac\u09b0\u0997\u09c1\u09a8\u09be \u09b8\u09a6\u09b0","lat":22.158905,"lon":90.1181456,"url":"sadar.barguna.gov.bd"},{"id":268,"district_id":35,"name":"Betagi","bn_name":"\u09ac\u09c7\u09a4\u09be\u0997\u09c0","lat":22.4107982,"lon":90.1598377,"url":"betagi.barguna.gov.bd"},{"id":269,"district_id":35,"name":"Bamna","bn_name":"\u09ac\u09be\u09ae\u09a8\u09be","lat":26.9673276,"lon":74.2359495,"url":"bamna.barguna.gov.bd"},{"id":270,"district_id":35,"name":"Pathorghata","bn_name":"\u09aa\u09be\u09a5\u09b0\u0998\u09be\u099f\u09be","lat":22.03884895,"lon":89.9319536645,"url":"pathorghata.barguna.gov.bd"},{"id":271,"district_id":35,"name":"Taltali","bn_name":"\u09a4\u09be\u09b2\u09a4\u09b2\u09bf","lat":22.1517957,"lon":90.4520702,"url":"taltali.barguna.gov.bd"},{"id":272,"district_id":36,"name":"Balaganj","bn_name":"\u09ac\u09be\u09b2\u09be\u0997\u099e\u09cd\u099c","lat":24.6578683,"lon":91.8414179,"url":"balaganj.sylhet.gov.bd"},{"id":273,"district_id":36,"name":"Beanibazar","bn_name":"\u09ac\u09bf\u09df\u09be\u09a8\u09c0\u09ac\u09be\u099c\u09be\u09b0","lat":24.8215475,"lon":92.1590067,"url":"beanibazar.sylhet.gov.bd"},{"id":274,"district_id":36,"name":"Bishwanath","bn_name":"\u09ac\u09bf\u09b6\u09cd\u09ac\u09a8\u09be\u09a5","lat":26.7938596,"lon":93.3591856231,"url":"bishwanath.sylhet.gov.bd"},{"id":275,"district_id":36,"name":"Companiganj","bn_name":"\u0995\u09cb\u09ae\u09cd\u09aa\u09be\u09a8\u09c0\u0997\u099e\u09cd\u099c","lat":23.6375741,"lon":90.971007,"url":"companiganj.sylhet.gov.bd"},{"id":276,"district_id":36,"name":"Fenchuganj","bn_name":"\u09ab\u09c7\u099e\u09cd\u099a\u09c1\u0997\u099e\u09cd\u099c","lat":24.6942465,"lon":91.9392229,"url":"fenchuganj.sylhet.gov.bd"},{"id":277,"district_id":36,"name":"Golapganj","bn_name":"\u0997\u09cb\u09b2\u09be\u09aa\u0997\u099e\u09cd\u099c","lat":24.8568815,"lon":92.0130004,"url":"golapganj.sylhet.gov.bd"},{"id":278,"district_id":36,"name":"Gowainghat","bn_name":"\u0997\u09cb\u09df\u09be\u0987\u09a8\u0998\u09be\u099f","lat":0.0,"lon":0.0,"url":"gowainghat.sylhet.gov.bd"},{"id":279,"district_id":36,"name":"Jaintiapur","bn_name":"\u099c\u09c8\u09a8\u09cd\u09a4\u09be\u09aa\u09c1\u09b0","lat":25.1236482,"lon":92.1462878,"url":"jaintiapur.sylhet.gov.bd"},{"id":280,"district_id":36,"name":"Kanaighat","bn_name":"\u0995\u09be\u09a8\u09be\u0987\u0998\u09be\u099f","lat":25.0120631,"lon":92.2558595,"url":"kanaighat.sylhet.gov.bd"},{"id":281,"district_id":36,"name":"Sylhet Sadar","bn_name":"\u09b8\u09bf\u09b2\u09c7\u099f \u09b8\u09a6\u09b0","lat":24.8941319,"lon":91.8664965,"url":"sylhetsadar.sylhet.gov.bd"},{"id":282,"district_id":36,"name":"Zakiganj","bn_name":"\u099c\u0995\u09bf\u0997\u099e\u09cd\u099c","lat":24.8765092,"lon":92.3695829,"url":"zakiganj.sylhet.gov.bd"},{"id":283,"district_id":36,"name":"Dakshinsurma","bn_name":"\u09a6\u0995\u09cd\u09b7\u09bf\u09a3 \u09b8\u09c1\u09b0\u09ae\u09be","lat":0.0,"lon":0.0,"url":"dakshinsurma.sylhet.gov.bd"},{"id":284,"district_id":36,"name":"Osmaninagar","bn_name":"\u0993\u09b8\u09ae\u09be\u09a8\u09c0 \u09a8\u0997\u09b0","lat":24.714181,"lon":91.7448616953,"url":"osmaninagar.sylhet.gov.bd"},{"id":285,"district_id":37,"name":"Barlekha","bn_name":"\u09ac\u09dc\u09b2\u09c7\u0996\u09be","lat":24.7041949,"lon":92.1929218,"url":"barlekha.moulvibazar.gov.bd"},{"id":286,"district_id":37,"name":"Kamolganj","bn_name":"\u0995\u09ae\u09b2\u0997\u099e\u09cd\u099c","lat":0.0,"lon":0.0,"url":"kamolganj.moulvibazar.gov.bd"},{"id":287,"district_id":37,"name":"Kulaura","bn_name":"\u0995\u09c1\u09b2\u09be\u0989\u09dc\u09be","lat":24.5226336,"lon":92.0340732,"url":"kulaura.moulvibazar.gov.bd"},{"id":288,"district_id":37,"name":"Moulvibazar Sadar","bn_name":"\u09ae\u09cc\u09b2\u09ad\u09c0\u09ac\u09be\u099c\u09be\u09b0 \u09b8\u09a6\u09b0","lat":0.0,"lon":0.0,"url":"moulvibazarsadar.moulvibazar.gov.bd"},{"id":289,"district_id":37,"name":"Rajnagar","bn_name":"\u09b0\u09be\u099c\u09a8\u0997\u09b0","lat":26.3859638,"lon":86.154200752,"url":"rajnagar.moulvibazar.gov.bd"},{"id":290,"district_id":37,"name":"Sreemangal","bn_name":"\u09b6\u09cd\u09b0\u09c0\u09ae\u0999\u09cd\u0997\u09b2","lat":24.3105781,"lon":91.725133,"url":"sreemangal.moulvibazar.gov.bd"},{"id":291,"district_id":37,"name":"Juri","bn_name":"\u099c\u09c1\u09dc\u09c0","lat":59.3557594,"lon":24.9100225437,"url":"juri.moulvibazar.gov.bd"},{"id":292,"district_id":38,"name":"Nabiganj","bn_name":"\u09a8\u09ac\u09c0\u0997\u099e\u09cd\u099c","lat":27.191955,"lon":79.3864521,"url":"nabiganj.habiganj.gov.bd"},{"id":293,"district_id":38,"name":"Bahubal","bn_name":"\u09ac\u09be\u09b9\u09c1\u09ac\u09b2","lat":24.3491292,"lon":91.5397053,"url":"bahubal.habiganj.gov.bd"},{"id":294,"district_id":38,"name":"Ajmiriganj","bn_name":"\u0986\u099c\u09ae\u09bf\u09b0\u09c0\u0997\u099e\u09cd\u099c","lat":24.5579044,"lon":91.2361655,"url":"ajmiriganj.habiganj.gov.bd"},{"id":295,"district_id":38,"name":"Baniachong","bn_name":"\u09ac\u09be\u09a8\u09bf\u09df\u09be\u099a\u0982","lat":24.525917,"lon":91.3626738,"url":"baniachong.habiganj.gov.bd"},{"id":296,"district_id":38,"name":"Lakhai","bn_name":"\u09b2\u09be\u0996\u09be\u0987","lat":24.2847975,"lon":91.2506877,"url":"lakhai.habiganj.gov.bd"},{"id":297,"district_id":38,"name":"Chunarughat","bn_name":"\u099a\u09c1\u09a8\u09be\u09b0\u09c1\u0998\u09be\u099f","lat":0.0,"lon":0.0,"url":"chunarughat.habiganj.gov.bd"},{"id":298,"district_id":38,"name":"Habiganj Sadar","bn_name":"\u09b9\u09ac\u09bf\u0997\u099e\u09cd\u099c \u09b8\u09a6\u09b0","lat":24.3883107,"lon":91.412571,"url":"habiganjsadar.habiganj.gov.bd"},{"id":299,"district_id":38,"name":"Madhabpur","bn_name":"\u09ae\u09be\u09a7\u09ac\u09aa\u09c1\u09b0","lat":22.1203896,"lon":88.3490306,"url":"madhabpur.habiganj.gov.bd"},{"id":300,"district_id":39,"name":"Sunamganj Sadar","bn_name":"\u09b8\u09c1\u09a8\u09be\u09ae\u0997\u099e\u09cd\u099c \u09b8\u09a6\u09b0","lat":24.8783265,"lon":90.7310074,"url":"sadar.sunamganj.gov.bd"},{"id":301,"district_id":39,"name":"South Sunamganj","bn_name":"\u09a6\u0995\u09cd\u09b7\u09bf\u09a3 \u09b8\u09c1\u09a8\u09be\u09ae\u0997\u099e\u09cd\u099c","lat":25.1426187,"lon":91.5808008,"url":"southsunamganj.sunamganj.gov.bd"},{"id":302,"district_id":39,"name":"Bishwambarpur","bn_name":"\u09ac\u09bf\u09b6\u09cd\u09ac\u09ae\u09cd\u09ad\u09b0\u09aa\u09c1\u09b0","lat":0.0,"lon":0.0,"url":"bishwambarpur.sunamganj.gov.bd"},{"id":303,"district_id":39,"name":"Chhatak","bn_name":"\u099b\u09be\u09a4\u0995","lat":25.033745,"lon":91.6618288,"url":"chhatak.sunamganj.gov.bd"},{"id":304,"district_id":39,"name":"Jagannathpur","bn_name":"\u099c\u0997\u09a8\u09cd\u09a8\u09be\u09a5\u09aa\u09c1\u09b0","lat":22.16952195,"lon":85.6439080488,"url":"jagannathpur.sunamganj.gov.bd"},{"id":305,"district_id":39,"name":"Dowarabazar","bn_name":"\u09a6\u09cb\u09af\u09bc\u09be\u09b0\u09be\u09ac\u09be\u099c\u09be\u09b0","lat":25.0399047,"lon":91.5718305,"url":"dowarabazar.sunamganj.gov.bd"},{"id":306,"district_id":39,"name":"Tahirpur","bn_name":"\u09a4\u09be\u09b9\u09bf\u09b0\u09aa\u09c1\u09b0","lat":25.6044566,"lon":87.8405857,"url":"tahirpur.sunamganj.gov.bd"},{"id":307,"district_id":39,"name":"Dharmapasha","bn_name":"\u09a7\u09b0\u09cd\u09ae\u09aa\u09be\u09b6\u09be","lat":24.934632,"lon":91.0467111,"url":"dharmapasha.sunamganj.gov.bd"},{"id":308,"district_id":39,"name":"Jamalganj","bn_name":"\u099c\u09be\u09ae\u09be\u09b2\u0997\u099e\u09cd\u099c","lat":24.9970512,"lon":91.232135,"url":"jamalganj.sunamganj.gov.bd"},{"id":309,"district_id":39,"name":"Shalla","bn_name":"\u09b6\u09be\u09b2\u09cd\u09b2\u09be","lat":7.46491505,"lon":38.5649951246,"url":"shalla.sunamganj.gov.bd"},{"id":310,"district_id":39,"name":"Derai","bn_name":"\u09a6\u09bf\u09b0\u09be\u0987","lat":34.5863373,"lon":72.7853277,"url":"derai.sunamganj.gov.bd"},{"id":311,"district_id":40,"name":"Belabo","bn_name":"\u09ac\u09c7\u09b2\u09be\u09ac\u09cb","lat":4.9203029,"lon":13.290971,"url":"belabo.narsingdi.gov.bd"},{"id":312,"district_id":40,"name":"Monohardi","bn_name":"\u09ae\u09a8\u09cb\u09b9\u09b0\u09a6\u09c0","lat":24.1165317,"lon":90.6777475,"url":"monohardi.narsingdi.gov.bd"},{"id":313,"district_id":40,"name":"Narsingdi Sadar","bn_name":"\u09a8\u09b0\u09b8\u09bf\u0982\u09a6\u09c0 \u09b8\u09a6\u09b0","lat":23.9201435,"lon":90.7184538,"url":"narsingdisadar.narsingdi.gov.bd"},{"id":314,"district_id":40,"name":"Palash","bn_name":"\u09aa\u09b2\u09be\u09b6","lat":52.3033333,"lon":29.0338,"url":"palash.narsingdi.gov.bd"},{"id":315,"district_id":40,"name":"Raipura","bn_name":"\u09b0\u09be\u09af\u09bc\u09aa\u09c1\u09b0\u09be","lat":23.9002274,"lon":79.9648842,"url":"raipura.narsingdi.gov.bd"},{"id":316,"district_id":40,"name":"Shibpur","bn_name":"\u09b6\u09bf\u09ac\u09aa\u09c1\u09b0","lat":23.8664948,"lon":91.0207112,"url":"shibpur.narsingdi.gov.bd"},{"id":317,"district_id":41,"name":"Kaliganj","bn_name":"\u0995\u09be\u09b2\u09c0\u0997\u099e\u09cd\u099c","lat":23.71167265,"lon":88.2897633318,"url":"kaliganj.gazipur.gov.bd"},{"id":318,"district_id":41,"name":"Kaliakair","bn_name":"\u0995\u09be\u09b2\u09bf\u09df\u09be\u0995\u09c8\u09b0","lat":23.9163964,"lon":90.2115843,"url":"kaliakair.gazipur.gov.bd"},{"id":319,"district_id":41,"name":"Kapasia","bn_name":"\u0995\u09be\u09aa\u09be\u09b8\u09bf\u09df\u09be","lat":24.1385896,"lon":90.6002341,"url":"kapasia.gazipur.gov.bd"},{"id":320,"district_id":41,"name":"Gazipur Sadar","bn_name":"\u0997\u09be\u099c\u09c0\u09aa\u09c1\u09b0 \u09b8\u09a6\u09b0","lat":23.9999521,"lon":90.4197487,"url":"sadar.gazipur.gov.bd"},{"id":321,"district_id":41,"name":"Sreepur","bn_name":"\u09b6\u09cd\u09b0\u09c0\u09aa\u09c1\u09b0","lat":26.86492655,"lon":85.7831169174,"url":"sreepur.gazipur.gov.bd"},{"id":322,"district_id":42,"name":"Shariatpur Sadar","bn_name":"\u09b6\u09b0\u09bf\u09df\u09a4\u09aa\u09c1\u09b0 \u09b8\u09a6\u09b0","lat":0.0,"lon":0.0,"url":"sadar.shariatpur.gov.bd"},{"id":323,"district_id":42,"name":"Naria","bn_name":"\u09a8\u09dc\u09bf\u09df\u09be","lat":54.0034377,"lon":20.0631177,"url":"naria.shariatpur.gov.bd"},{"id":324,"district_id":42,"name":"Zajira","bn_name":"\u099c\u09be\u099c\u09bf\u09b0\u09be","lat":0.0,"lon":0.0,"url":"zajira.shariatpur.gov.bd"},{"id":325,"district_id":42,"name":"Gosairhat","bn_name":"\u0997\u09cb\u09b8\u09be\u0987\u09b0\u09b9\u09be\u099f","lat":0.0,"lon":0.0,"url":"gosairhat.shariatpur.gov.bd"},{"id":326,"district_id":42,"name":"Bhedarganj","bn_name":"\u09ad\u09c7\u09a6\u09b0\u0997\u099e\u09cd\u099c","lat":23.1988139,"lon":90.447782,"url":"bhedarganj.shariatpur.gov.bd"},{"id":327,"district_id":42,"name":"Damudya","bn_name":"\u09a1\u09be\u09ae\u09c1\u09a1\u09cd\u09af\u09be","lat":23.1419299,"lon":90.4423073076,"url":"damudya.shariatpur.gov.bd"},{"id":328,"district_id":43,"name":"Araihazar","bn_name":"\u0986\u09a1\u09bc\u09be\u0987\u09b9\u09be\u099c\u09be\u09b0","lat":23.7926714,"lon":90.6531527,"url":"araihazar.narayanganj.gov.bd"},{"id":329,"district_id":43,"name":"Bandar","bn_name":"\u09ac\u09a8\u09cd\u09a6\u09b0","lat":16.1819393,"lon":81.1351299,"url":"bandar.narayanganj.gov.bd"},{"id":330,"district_id":43,"name":"Narayanganj Sadar","bn_name":"\u09a8\u09be\u09b0\u09be\u09df\u09a8\u0997\u099e\u09cd\u099c \u09b8\u09a6\u09b0","lat":23.61991735,"lon":90.5027019229,"url":"narayanganjsadar.narayanganj.gov.bd"},{"id":331,"district_id":43,"name":"Rupganj","bn_name":"\u09b0\u09c2\u09aa\u0997\u099e\u09cd\u099c","lat":23.7927951,"lon":90.5298399,"url":"rupganj.narayanganj.gov.bd"},{"id":332,"district_id":43,"name":"Sonargaon","bn_name":"\u09b8\u09cb\u09a8\u09be\u09b0\u0997\u09be\u0981","lat":23.6421599,"lon":90.6023361,"url":"sonargaon.narayanganj.gov.bd"},{"id":333,"district_id":44,"name":"Basail","bn_name":"\u09ac\u09be\u09b8\u09be\u0987\u09b2","lat":-27.887641,"lon":-59.2816402,"url":"basail.tangail.gov.bd"},{"id":334,"district_id":44,"name":"Bhuapur","bn_name":"\u09ad\u09c1\u09af\u09bc\u09be\u09aa\u09c1\u09b0","lat":28.6383415,"lon":77.3225836687,"url":"bhuapur.tangail.gov.bd"},{"id":335,"district_id":44,"name":"Delduar","bn_name":"\u09a6\u09c7\u09b2\u09a6\u09c1\u09af\u09bc\u09be\u09b0","lat":24.169158,"lon":89.9683401,"url":"delduar.tangail.gov.bd"},{"id":336,"district_id":44,"name":"Ghatail","bn_name":"\u0998\u09be\u099f\u09be\u0987\u09b2","lat":0.0,"lon":0.0,"url":"ghatail.tangail.gov.bd"},{"id":337,"district_id":44,"name":"Gopalpur","bn_name":"\u0997\u09cb\u09aa\u09be\u09b2\u09aa\u09c1\u09b0","lat":25.30946375,"lon":87.2078730596,"url":"gopalpur.tangail.gov.bd"},{"id":338,"district_id":44,"name":"Madhupur","bn_name":"\u09ae\u09a7\u09c1\u09aa\u09c1\u09b0","lat":24.2878679,"lon":86.6105095002,"url":"madhupur.tangail.gov.bd"},{"id":339,"district_id":44,"name":"Mirzapur","bn_name":"\u09ae\u09bf\u09b0\u09cd\u099c\u09be\u09aa\u09c1\u09b0","lat":24.9356347,"lon":82.6477012981,"url":"mirzapur.tangail.gov.bd"},{"id":340,"district_id":44,"name":"Nagarpur","bn_name":"\u09a8\u09be\u0997\u09b0\u09aa\u09c1\u09b0","lat":24.0532552,"lon":89.8739848,"url":"nagarpur.tangail.gov.bd"},{"id":341,"district_id":44,"name":"Sakhipur","bn_name":"\u09b8\u0996\u09bf\u09aa\u09c1\u09b0","lat":22.5669788,"lon":88.9745164,"url":"sakhipur.tangail.gov.bd"},{"id":342,"district_id":44,"name":"Tangail Sadar","bn_name":"\u099f\u09be\u0999\u09cd\u0997\u09be\u0987\u09b2 \u09b8\u09a6\u09b0","lat":24.25128855,"lon":89.9148593722,"url":"tangailsadar.tangail.gov.bd"},{"id":343,"district_id":44,"name":"Kalihati","bn_name":"\u0995\u09be\u09b2\u09bf\u09b9\u09be\u09a4\u09c0","lat":24.3992535,"lon":89.986435,"url":"kalihati.tangail.gov.bd"},{"id":344,"district_id":44,"name":"Dhanbari","bn_name":"\u09a7\u09a8\u09ac\u09be\u09dc\u09c0","lat":24.6774082,"lon":89.951882,"url":"dhanbari.tangail.gov.bd"},{"id":345,"district_id":45,"name":"Itna","bn_name":"\u0987\u099f\u09a8\u09be","lat":12.0095164,"lon":76.4077869,"url":"itna.kishoreganj.gov.bd"},{"id":346,"district_id":45,"name":"Katiadi","bn_name":"\u0995\u099f\u09bf\u09df\u09be\u09a6\u09c0","lat":24.2502962,"lon":90.7962218,"url":"katiadi.kishoreganj.gov.bd"},{"id":347,"district_id":45,"name":"Bhairab","bn_name":"\u09ad\u09c8\u09b0\u09ac","lat":23.7128753,"lon":88.6125731,"url":"bhairab.kishoreganj.gov.bd"},{"id":348,"district_id":45,"name":"Tarail","bn_name":"\u09a4\u09be\u09dc\u09be\u0987\u09b2","lat":24.54923,"lon":90.8912914,"url":"tarail.kishoreganj.gov.bd"},{"id":349,"district_id":45,"name":"Hossainpur","bn_name":"\u09b9\u09cb\u09b8\u09c7\u09a8\u09aa\u09c1\u09b0","lat":24.4168657,"lon":90.6553734,"url":"hossainpur.kishoreganj.gov.bd"},{"id":350,"district_id":45,"name":"Pakundia","bn_name":"\u09aa\u09be\u0995\u09c1\u09a8\u09cd\u09a6\u09bf\u09df\u09be","lat":24.3287538,"lon":90.6805614,"url":"pakundia.kishoreganj.gov.bd"},{"id":351,"district_id":45,"name":"Kuliarchar","bn_name":"\u0995\u09c1\u09b2\u09bf\u09df\u09be\u09b0\u099a\u09b0","lat":24.1515066,"lon":90.9322312,"url":"kuliarchar.kishoreganj.gov.bd"},{"id":352,"district_id":45,"name":"Kishoreganj Sadar","bn_name":"\u0995\u09bf\u09b6\u09cb\u09b0\u0997\u099e\u09cd\u099c \u09b8\u09a6\u09b0","lat":24.3286901,"lon":90.6805477,"url":"kishoreganjsadar.kishoreganj.gov.bd"},{"id":353,"district_id":45,"name":"Karimgonj","bn_name":"\u0995\u09b0\u09bf\u09ae\u0997\u099e\u09cd\u099c","lat":0.0,"lon":0.0,"url":"karimgonj.kishoreganj.gov.bd"},{"id":354,"district_id":45,"name":"Bajitpur","bn_name":"\u09ac\u09be\u099c\u09bf\u09a4\u09aa\u09c1\u09b0","lat":24.2157623,"lon":90.9518114,"url":"bajitpur.kishoreganj.gov.bd"},{"id":355,"district_id":45,"name":"Austagram","bn_name":"\u0985\u09b7\u09cd\u099f\u0997\u09cd\u09b0\u09be\u09ae","lat":24.2743376,"lon":91.104981,"url":"austagram.kishoreganj.gov.bd"},{"id":356,"district_id":45,"name":"Mithamoin","bn_name":"\u09ae\u09bf\u09a0\u09be\u09ae\u0987\u09a8","lat":24.4149439,"lon":91.0602879,"url":"mithamoin.kishoreganj.gov.bd"},{"id":357,"district_id":45,"name":"Nikli","bn_name":"\u09a8\u09bf\u0995\u09b2\u09c0","lat":24.3303482,"lon":90.9374993,"url":"nikli.kishoreganj.gov.bd"},{"id":358,"district_id":46,"name":"Harirampur","bn_name":"\u09b9\u09b0\u09bf\u09b0\u09be\u09ae\u09aa\u09c1\u09b0","lat":25.37881595,"lon":88.249442526,"url":"harirampur.manikganj.gov.bd"},{"id":359,"district_id":46,"name":"Saturia","bn_name":"\u09b8\u09be\u099f\u09c1\u09b0\u09bf\u09df\u09be","lat":41.2385223,"lon":-5.5681502,"url":"saturia.manikganj.gov.bd"},{"id":360,"district_id":46,"name":"Manikganj Sadar","bn_name":"\u09ae\u09be\u09a8\u09bf\u0995\u0997\u099e\u09cd\u099c \u09b8\u09a6\u09b0","lat":23.8706167,"lon":89.9986742,"url":"sadar.manikganj.gov.bd"},{"id":361,"district_id":46,"name":"Gior","bn_name":"\u0998\u09bf\u0993\u09b0","lat":7.91667,"lon":33.75,"url":"gior.manikganj.gov.bd"},{"id":362,"district_id":46,"name":"Shibaloy","bn_name":"\u09b6\u09bf\u09ac\u09be\u09b2\u09df","lat":22.5008241,"lon":88.3347262,"url":"shibaloy.manikganj.gov.bd"},{"id":363,"district_id":46,"name":"Doulatpur","bn_name":"\u09a6\u09cc\u09b2\u09a4\u09aa\u09c1\u09b0","lat":23.350765,"lon":91.1711196,"url":"doulatpur.manikganj.gov.bd"},{"id":364,"district_id":46,"name":"Singiar","bn_name":"\u09b8\u09bf\u0982\u0997\u09be\u0987\u09b0","lat":0.0,"lon":0.0,"url":"singiar.manikganj.gov.bd"},{"id":365,"district_id":47,"name":"Savar","bn_name":"\u09b8\u09be\u09ad\u09be\u09b0","lat":44.0611754,"lon":15.0163744,"url":"savar.dhaka.gov.bd"},{"id":366,"district_id":47,"name":"Dhamrai","bn_name":"\u09a7\u09be\u09ae\u09b0\u09be\u0987","lat":23.920162,"lon":90.2108702,"url":"dhamrai.dhaka.gov.bd"},{"id":367,"district_id":47,"name":"Keraniganj","bn_name":"\u0995\u09c7\u09b0\u09be\u09a3\u09c0\u0997\u099e\u09cd\u099c","lat":23.69818865,"lon":90.3505261296,"url":"keraniganj.dhaka.gov.bd"},{"id":368,"district_id":47,"name":"Nawabganj","bn_name":"\u09a8\u09ac\u09be\u09ac\u0997\u099e\u09cd\u099c","lat":26.92228995,"lon":81.2076432342,"url":"nawabganj.dhaka.gov.bd"},{"id":369,"district_id":47,"name":"Dohar","bn_name":"\u09a6\u09cb\u09b9\u09be\u09b0","lat":24.4589778,"lon":69.4891961,"url":"dohar.dhaka.gov.bd"},{"id":370,"district_id":48,"name":"Munshiganj Sadar","bn_name":"\u09ae\u09c1\u09a8\u09cd\u09b8\u09bf\u0997\u099e\u09cd\u099c \u09b8\u09a6\u09b0","lat":23.5533074,"lon":90.5342845,"url":"sadar.munshiganj.gov.bd"},{"id":371,"district_id":48,"name":"Sreenagar","bn_name":"\u09b6\u09cd\u09b0\u09c0\u09a8\u0997\u09b0","lat":23.5436923,"lon":90.2920935,"url":"sreenagar.munshiganj.gov.bd"},{"id":372,"district_id":48,"name":"Sirajdikhan","bn_name":"\u09b8\u09bf\u09b0\u09be\u099c\u09a6\u09bf\u0996\u09be\u09a8","lat":23.5701134,"lon":90.383353,"url":"sirajdikhan.munshiganj.gov.bd"},{"id":373,"district_id":48,"name":"Louhajanj","bn_name":"\u09b2\u09cc\u09b9\u099c\u0982","lat":0.0,"lon":0.0,"url":"louhajanj.munshiganj.gov.bd"},{"id":374,"district_id":48,"name":"Gajaria","bn_name":"\u0997\u099c\u09be\u09b0\u09bf\u09df\u09be","lat":0.0,"lon":0.0,"url":"gajaria.munshiganj.gov.bd"},{"id":375,"district_id":48,"name":"Tongibari","bn_name":"\u099f\u0982\u0997\u09c0\u09ac\u09be\u09dc\u09bf","lat":23.5102866,"lon":90.4659685,"url":"tongibari.munshiganj.gov.bd"},{"id":376,"district_id":49,"name":"Rajbari Sadar","bn_name":"\u09b0\u09be\u099c\u09ac\u09be\u09a1\u09bc\u09c0 \u09b8\u09a6\u09b0","lat":24.4186779,"lon":88.9952433,"url":"sadar.rajbari.gov.bd"},{"id":377,"district_id":49,"name":"Goalanda","bn_name":"\u0997\u09cb\u09af\u09bc\u09be\u09b2\u09a8\u09cd\u09a6","lat":23.7240229,"lon":89.7466981,"url":"goalanda.rajbari.gov.bd"},{"id":378,"district_id":49,"name":"Pangsa","bn_name":"\u09aa\u09be\u0982\u09b6\u09be","lat":20.932643,"lon":101.786641,"url":"pangsa.rajbari.gov.bd"},{"id":379,"district_id":49,"name":"Baliakandi","bn_name":"\u09ac\u09be\u09b2\u09bf\u09af\u09bc\u09be\u0995\u09be\u09a8\u09cd\u09a6\u09bf","lat":23.6351881,"lon":89.5484979,"url":"baliakandi.rajbari.gov.bd"},{"id":380,"district_id":49,"name":"Kalukhali","bn_name":"\u0995\u09be\u09b2\u09c1\u0996\u09be\u09b2\u09c0","lat":22.4038188,"lon":89.29452,"url":"kalukhali.rajbari.gov.bd"},{"id":381,"district_id":50,"name":"Madaripur Sadar","bn_name":"\u09ae\u09be\u09a6\u09be\u09b0\u09c0\u09aa\u09c1\u09b0 \u09b8\u09a6\u09b0","lat":0.0,"lon":0.0,"url":"sadar.madaripur.gov.bd"},{"id":382,"district_id":50,"name":"Shibchar","bn_name":"\u09b6\u09bf\u09ac\u099a\u09b0","lat":23.34728,"lon":90.1697226,"url":"shibchar.madaripur.gov.bd"},{"id":383,"district_id":50,"name":"Kalkini","bn_name":"\u0995\u09be\u09b2\u0995\u09bf\u09a8\u09bf","lat":23.0781315,"lon":90.2217374,"url":"kalkini.madaripur.gov.bd"},{"id":384,"district_id":50,"name":"Rajoir","bn_name":"\u09b0\u09be\u099c\u09c8\u09b0","lat":23.2274475,"lon":90.0212501,"url":"rajoir.madaripur.gov.bd"},{"id":385,"district_id":51,"name":"Gopalganj Sadar","bn_name":"\u0997\u09cb\u09aa\u09be\u09b2\u0997\u099e\u09cd\u099c \u09b8\u09a6\u09b0","lat":26.4607585,"lon":84.447083,"url":"sadar.gopalganj.gov.bd"},{"id":386,"district_id":51,"name":"Kashiani","bn_name":"\u0995\u09be\u09b6\u09bf\u09af\u09bc\u09be\u09a8\u09c0","lat":23.23649,"lon":89.7204523,"url":"kashiani.gopalganj.gov.bd"},{"id":387,"district_id":51,"name":"Tungipara","bn_name":"\u099f\u09c1\u0982\u0997\u09c0\u09aa\u09be\u09a1\u09bc\u09be","lat":22.8899555,"lon":89.8973824,"url":"tungipara.gopalganj.gov.bd"},{"id":388,"district_id":51,"name":"Kotalipara","bn_name":"\u0995\u09cb\u099f\u09be\u09b2\u09c0\u09aa\u09be\u09a1\u09bc\u09be","lat":22.9872531,"lon":90.0049273,"url":"kotalipara.gopalganj.gov.bd"},{"id":389,"district_id":51,"name":"Muksudpur","bn_name":"\u09ae\u09c1\u0995\u09b8\u09c1\u09a6\u09aa\u09c1\u09b0","lat":23.3146905,"lon":89.8696769,"url":"muksudpur.gopalganj.gov.bd"},{"id":390,"district_id":52,"name":"Faridpur Sadar","bn_name":"\u09ab\u09b0\u09bf\u09a6\u09aa\u09c1\u09b0 \u09b8\u09a6\u09b0","lat":25.2716389,"lon":82.9215409,"url":"sadar.faridpur.gov.bd"},{"id":391,"district_id":52,"name":"Alfadanga","bn_name":"\u0986\u09b2\u09ab\u09be\u09a1\u09be\u0999\u09cd\u0997\u09be","lat":23.3276949,"lon":89.6979469,"url":"alfadanga.faridpur.gov.bd"},{"id":392,"district_id":52,"name":"Boalmari","bn_name":"\u09ac\u09cb\u09df\u09be\u09b2\u09ae\u09be\u09b0\u09c0","lat":23.3854562,"lon":89.681615,"url":"boalmari.faridpur.gov.bd"},{"id":393,"district_id":52,"name":"Sadarpur","bn_name":"\u09b8\u09a6\u09b0\u09aa\u09c1\u09b0","lat":24.1882055,"lon":72.4537681,"url":"sadarpur.faridpur.gov.bd"},{"id":394,"district_id":52,"name":"Nagarkanda","bn_name":"\u09a8\u0997\u09b0\u0995\u09be\u09a8\u09cd\u09a6\u09be","lat":23.2956801,"lon":89.6849805,"url":"nagarkanda.faridpur.gov.bd"},{"id":395,"district_id":52,"name":"Bhanga","bn_name":"\u09ad\u09be\u0999\u09cd\u0997\u09be","lat":23.3891503,"lon":89.9850714474,"url":"bhanga.faridpur.gov.bd"},{"id":396,"district_id":52,"name":"Charbhadrasan","bn_name":"\u099a\u09b0\u09ad\u09a6\u09cd\u09b0\u09be\u09b8\u09a8","lat":23.562251,"lon":90.007978,"url":"charbhadrasan.faridpur.gov.bd"},{"id":397,"district_id":52,"name":"Madhukhali","bn_name":"\u09ae\u09a7\u09c1\u0996\u09be\u09b2\u09c0","lat":23.5277739,"lon":89.6499821,"url":"madhukhali.faridpur.gov.bd"},{"id":398,"district_id":52,"name":"Saltha","bn_name":"\u09b8\u09be\u09b2\u09a5\u09be","lat":0.0,"lon":0.0,"url":"saltha.faridpur.gov.bd"},{"id":399,"district_id":53,"name":"Panchagarh Sadar","bn_name":"\u09aa\u099e\u09cd\u099a\u0997\u09a1\u09bc \u09b8\u09a6\u09b0","lat":26.3774432,"lon":88.5995033705,"url":"panchagarhsadar.panchagarh.gov.bd"},{"id":400,"district_id":53,"name":"Debiganj","bn_name":"\u09a6\u09c7\u09ac\u09c0\u0997\u099e\u09cd\u099c","lat":26.1201935,"lon":88.759245,"url":"debiganj.panchagarh.gov.bd"},{"id":401,"district_id":53,"name":"Boda","bn_name":"\u09ac\u09cb\u09a6\u09be","lat":46.0808583,"lon":18.0478346,"url":"boda.panchagarh.gov.bd"},{"id":402,"district_id":53,"name":"Atwari","bn_name":"\u0986\u099f\u09cb\u09af\u09bc\u09be\u09b0\u09c0","lat":26.2766594,"lon":88.4122113097,"url":"atwari.panchagarh.gov.bd"},{"id":403,"district_id":53,"name":"Tetulia","bn_name":"\u09a4\u09c7\u09a4\u09c1\u09b2\u09bf\u09af\u09bc\u09be","lat":26.52133965,"lon":88.4203720806,"url":"tetulia.panchagarh.gov.bd"},{"id":404,"district_id":54,"name":"Nawabganj","bn_name":"\u09a8\u09ac\u09be\u09ac\u0997\u099e\u09cd\u099c","lat":26.92228995,"lon":81.2076432342,"url":"nawabganj.dinajpur.gov.bd"},{"id":405,"district_id":54,"name":"Birganj","bn_name":"\u09ac\u09c0\u09b0\u0997\u099e\u09cd\u099c","lat":27.012541,"lon":84.877998,"url":"birganj.dinajpur.gov.bd"},{"id":406,"district_id":54,"name":"Ghoraghat","bn_name":"\u0998\u09cb\u09dc\u09be\u0998\u09be\u099f","lat":25.2660298,"lon":89.2599561,"url":"ghoraghat.dinajpur.gov.bd"},{"id":407,"district_id":54,"name":"Birampur","bn_name":"\u09ac\u09bf\u09b0\u09be\u09ae\u09aa\u09c1\u09b0","lat":25.3905537,"lon":88.991278,"url":"birampur.dinajpur.gov.bd"},{"id":408,"district_id":54,"name":"Parbatipur","bn_name":"\u09aa\u09be\u09b0\u09cd\u09ac\u09a4\u09c0\u09aa\u09c1\u09b0","lat":27.5964695,"lon":84.3296754653,"url":"parbatipur.dinajpur.gov.bd"},{"id":409,"district_id":54,"name":"Bochaganj","bn_name":"\u09ac\u09cb\u099a\u09be\u0997\u099e\u09cd\u099c","lat":25.8566506,"lon":88.4112167,"url":"bochaganj.dinajpur.gov.bd"},{"id":410,"district_id":54,"name":"Kaharol","bn_name":"\u0995\u09be\u09b9\u09be\u09b0\u09cb\u09b2","lat":25.7553705,"lon":88.673315,"url":"kaharol.dinajpur.gov.bd"},{"id":411,"district_id":54,"name":"Fulbari","bn_name":"\u09ab\u09c1\u09b2\u09ac\u09be\u09dc\u09c0","lat":27.33597255,"lon":86.2963943143,"url":"fulbari.dinajpur.gov.bd"},{"id":412,"district_id":54,"name":"Dinajpur Sadar","bn_name":"\u09a6\u09bf\u09a8\u09be\u099c\u09aa\u09c1\u09b0 \u09b8\u09a6\u09b0","lat":25.73013825,"lon":88.6672944991,"url":"dinajpursadar.dinajpur.gov.bd"},{"id":413,"district_id":54,"name":"Hakimpur","bn_name":"\u09b9\u09be\u0995\u09bf\u09ae\u09aa\u09c1\u09b0","lat":23.7027202,"lon":89.3092608,"url":"hakimpur.dinajpur.gov.bd"},{"id":414,"district_id":54,"name":"Khansama","bn_name":"\u0996\u09be\u09a8\u09b8\u09be\u09ae\u09be","lat":25.9139671,"lon":88.7509881,"url":"khansama.dinajpur.gov.bd"},{"id":415,"district_id":54,"name":"Birol","bn_name":"\u09ac\u09bf\u09b0\u09b2","lat":26.2646512,"lon":73.9114237,"url":"birol.dinajpur.gov.bd"},{"id":416,"district_id":54,"name":"Chirirbandar","bn_name":"\u099a\u09bf\u09b0\u09bf\u09b0\u09ac\u09a8\u09cd\u09a6\u09b0","lat":25.6458795,"lon":88.7758409,"url":"chirirbandar.dinajpur.gov.bd"},{"id":417,"district_id":55,"name":"Lalmonirhat Sadar","bn_name":"\u09b2\u09be\u09b2\u09ae\u09a8\u09bf\u09b0\u09b9\u09be\u099f \u09b8\u09a6\u09b0","lat":25.89377595,"lon":89.4705747983,"url":"sadar.lalmonirhat.gov.bd"},{"id":418,"district_id":55,"name":"Kaliganj","bn_name":"\u0995\u09be\u09b2\u09c0\u0997\u099e\u09cd\u099c","lat":23.71167265,"lon":88.2897633318,"url":"kaliganj.lalmonirhat.gov.bd"},{"id":419,"district_id":55,"name":"Hatibandha","bn_name":"\u09b9\u09be\u09a4\u09c0\u09ac\u09be\u09a8\u09cd\u09a7\u09be","lat":24.218654,"lon":90.1370877,"url":"hatibandha.lalmonirhat.gov.bd"},{"id":420,"district_id":55,"name":"Patgram","bn_name":"\u09aa\u09be\u099f\u0997\u09cd\u09b0\u09be\u09ae","lat":26.3457861,"lon":89.0208507,"url":"patgram.lalmonirhat.gov.bd"},{"id":421,"district_id":55,"name":"Aditmari","bn_name":"\u0986\u09a6\u09bf\u09a4\u09ae\u09be\u09b0\u09c0","lat":25.9222534,"lon":89.350972,"url":"aditmari.lalmonirhat.gov.bd"},{"id":422,"district_id":56,"name":"Syedpur","bn_name":"\u09b8\u09c8\u09af\u09bc\u09a6\u09aa\u09c1\u09b0","lat":19.6232969,"lon":78.7357897,"url":"syedpur.nilphamari.gov.bd"},{"id":423,"district_id":56,"name":"Domar","bn_name":"\u09a1\u09cb\u09ae\u09be\u09b0","lat":26.106193,"lon":88.8234458,"url":"domar.nilphamari.gov.bd"},{"id":424,"district_id":56,"name":"Dimla","bn_name":"\u09a1\u09bf\u09ae\u09b2\u09be","lat":26.1514842,"lon":88.9204636,"url":"dimla.nilphamari.gov.bd"},{"id":425,"district_id":56,"name":"Jaldhaka","bn_name":"\u099c\u09b2\u09a2\u09be\u0995\u09be","lat":26.2003292,"lon":89.3021954,"url":"jaldhaka.nilphamari.gov.bd"},{"id":426,"district_id":56,"name":"Kishorganj","bn_name":"\u0995\u09bf\u09b6\u09cb\u09b0\u0997\u099e\u09cd\u099c","lat":24.3036399,"lon":90.7702615,"url":"kishorganj.nilphamari.gov.bd"},{"id":427,"district_id":56,"name":"Nilphamari Sadar","bn_name":"\u09a8\u09c0\u09b2\u09ab\u09be\u09ae\u09be\u09b0\u09c0 \u09b8\u09a6\u09b0","lat":0.0,"lon":0.0,"url":"nilphamarisadar.nilphamari.gov.bd"},{"id":428,"district_id":57,"name":"Sadullapur","bn_name":"\u09b8\u09be\u09a6\u09c1\u09b2\u09cd\u09b2\u09be\u09aa\u09c1\u09b0","lat":23.9912624,"lon":89.3788281,"url":"sadullapur.gaibandha.gov.bd"},{"id":429,"district_id":57,"name":"Gaibandha Sadar","bn_name":"\u0997\u09be\u0987\u09ac\u09be\u09a8\u09cd\u09a7\u09be \u09b8\u09a6\u09b0","lat":0.0,"lon":0.0,"url":"gaibandhasadar.gaibandha.gov.bd"},{"id":430,"district_id":57,"name":"Palashbari","bn_name":"\u09aa\u09b2\u09be\u09b6\u09ac\u09be\u09dc\u09c0","lat":25.9850684,"lon":88.8415049,"url":"palashbari.gaibandha.gov.bd"},{"id":431,"district_id":57,"name":"Saghata","bn_name":"\u09b8\u09be\u0998\u09be\u099f\u09be","lat":0.0,"lon":0.0,"url":"saghata.gaibandha.gov.bd"},{"id":432,"district_id":57,"name":"Gobindaganj","bn_name":"\u0997\u09cb\u09ac\u09bf\u09a8\u09cd\u09a6\u0997\u099e\u09cd\u099c","lat":25.1339117,"lon":89.3857832,"url":"gobindaganj.gaibandha.gov.bd"},{"id":433,"district_id":57,"name":"Sundarganj","bn_name":"\u09b8\u09c1\u09a8\u09cd\u09a6\u09b0\u0997\u099e\u09cd\u099c","lat":25.5669663,"lon":89.5227662,"url":"sundarganj.gaibandha.gov.bd"},{"id":434,"district_id":57,"name":"Phulchari","bn_name":"\u09ab\u09c1\u09b2\u099b\u09dc\u09bf","lat":0.0,"lon":0.0,"url":"phulchari.gaibandha.gov.bd"},{"id":435,"district_id":58,"name":"Thakurgaon Sadar","bn_name":"\u09a0\u09be\u0995\u09c1\u09b0\u0997\u09be\u0981\u0993 \u09b8\u09a6\u09b0","lat":26.0340069,"lon":88.4626794245,"url":"thakurgaonsadar.thakurgaon.gov.bd"},{"id":436,"district_id":58,"name":"Pirganj","bn_name":"\u09aa\u09c0\u09b0\u0997\u099e\u09cd\u099c","lat":25.416289,"lon":89.3164095,"url":"pirganj.thakurgaon.gov.bd"},{"id":437,"district_id":58,"name":"Ranisankail","bn_name":"\u09b0\u09be\u09a3\u09c0\u09b6\u0982\u0995\u09c8\u09b2","lat":25.9015206,"lon":88.2543889,"url":"ranisankail.thakurgaon.gov.bd"},{"id":438,"district_id":58,"name":"Haripur","bn_name":"\u09b9\u09b0\u09bf\u09aa\u09c1\u09b0","lat":27.0138578,"lon":85.5417723623,"url":"haripur.thakurgaon.gov.bd"},{"id":439,"district_id":58,"name":"Baliadangi","bn_name":"\u09ac\u09be\u09b2\u09bf\u09af\u09bc\u09be\u09a1\u09be\u0999\u09cd\u0997\u09c0","lat":26.0856143,"lon":88.2764013,"url":"baliadangi.thakurgaon.gov.bd"},{"id":440,"district_id":59,"name":"Rangpur Sadar","bn_name":"\u09b0\u0982\u09aa\u09c1\u09b0 \u09b8\u09a6\u09b0","lat":25.89377595,"lon":89.4705747983,"url":"rangpursadar.rangpur.gov.bd"},{"id":441,"district_id":59,"name":"Gangachara","bn_name":"\u0997\u0982\u0997\u09be\u099a\u09a1\u09bc\u09be","lat":25.8054979,"lon":89.2372064,"url":"gangachara.rangpur.gov.bd"},{"id":442,"district_id":59,"name":"Taragonj","bn_name":"\u09a4\u09be\u09b0\u09be\u0997\u099e\u09cd\u099c","lat":25.0841982,"lon":90.1958111,"url":"taragonj.rangpur.gov.bd"},{"id":443,"district_id":59,"name":"Badargonj","bn_name":"\u09ac\u09a6\u09b0\u0997\u099e\u09cd\u099c","lat":25.7434139,"lon":89.2300546,"url":"badargonj.rangpur.gov.bd"},{"id":444,"district_id":59,"name":"Mithapukur","bn_name":"\u09ae\u09bf\u09a0\u09be\u09aa\u09c1\u0995\u09c1\u09b0","lat":22.3569672,"lon":90.3486315553,"url":"mithapukur.rangpur.gov.bd"},{"id":445,"district_id":59,"name":"Pirgonj","bn_name":"\u09aa\u09c0\u09b0\u0997\u099e\u09cd\u099c","lat":22.5265014,"lon":90.7296145,"url":"pirgonj.rangpur.gov.bd"},{"id":446,"district_id":59,"name":"Kaunia","bn_name":"\u0995\u09be\u0989\u09a8\u09bf\u09af\u09bc\u09be","lat":25.7733094,"lon":89.4190381,"url":"kaunia.rangpur.gov.bd"},{"id":447,"district_id":59,"name":"Pirgacha","bn_name":"\u09aa\u09c0\u09b0\u0997\u09be\u099b\u09be","lat":25.6621356,"lon":89.4082601,"url":"pirgacha.rangpur.gov.bd"},{"id":448,"district_id":60,"name":"Kurigram Sadar","bn_name":"\u0995\u09c1\u09a1\u09bc\u09bf\u0997\u09cd\u09b0\u09be\u09ae \u09b8\u09a6\u09b0","lat":25.8112019,"lon":89.6144683,"url":"kurigramsadar.kurigram.gov.bd"},{"id":449,"district_id":60,"name":"Nageshwari","bn_name":"\u09a8\u09be\u0997\u09c7\u09b6\u09cd\u09ac\u09b0\u09c0","lat":25.9681024,"lon":89.6895759,"url":"nageshwari.kurigram.gov.bd"},{"id":450,"district_id":60,"name":"Bhurungamari","bn_name":"\u09ad\u09c1\u09b0\u09c1\u0999\u09cd\u0997\u09be\u09ae\u09be\u09b0\u09c0","lat":26.1104617,"lon":89.6638474,"url":"bhurungamari.kurigram.gov.bd"},{"id":451,"district_id":60,"name":"Phulbari","bn_name":"\u09ab\u09c1\u09b2\u09ac\u09be\u09dc\u09c0","lat":28.61590415,"lon":80.6997848203,"url":"phulbari.kurigram.gov.bd"},{"id":452,"district_id":60,"name":"Rajarhat","bn_name":"\u09b0\u09be\u099c\u09be\u09b0\u09b9\u09be\u099f","lat":22.6212802,"lon":88.4855230916,"url":"rajarhat.kurigram.gov.bd"},{"id":453,"district_id":60,"name":"Ulipur","bn_name":"\u0989\u09b2\u09bf\u09aa\u09c1\u09b0","lat":25.6558768,"lon":89.6191027,"url":"ulipur.kurigram.gov.bd"},{"id":454,"district_id":60,"name":"Chilmari","bn_name":"\u099a\u09bf\u09b2\u09ae\u09be\u09b0\u09c0","lat":25.5850605,"lon":89.6622435,"url":"chilmari.kurigram.gov.bd"},{"id":455,"district_id":60,"name":"Rowmari","bn_name":"\u09b0\u09cc\u09ae\u09be\u09b0\u09c0","lat":25.576821,"lon":89.8348269,"url":"rowmari.kurigram.gov.bd"},{"id":456,"district_id":60,"name":"Charrajibpur","bn_name":"\u099a\u09b0 \u09b0\u09be\u099c\u09bf\u09ac\u09aa\u09c1\u09b0","lat":0.0,"lon":0.0,"url":"charrajibpur.kurigram.gov.bd"},{"id":457,"district_id":61,"name":"Sherpur Sadar","bn_name":"\u09b6\u09c7\u09b0\u09aa\u09c1\u09b0 \u09b8\u09a6\u09b0","lat":-4.5786201,"lon":119.8243834,"url":"sherpursadar.sherpur.gov.bd"},{"id":458,"district_id":61,"name":"Nalitabari","bn_name":"\u09a8\u09be\u09b2\u09bf\u09a4\u09be\u09ac\u09be\u09a1\u09bc\u09c0","lat":25.0896639,"lon":90.194301,"url":"nalitabari.sherpur.gov.bd"},{"id":459,"district_id":61,"name":"Sreebordi","bn_name":"\u09b6\u09cd\u09b0\u09c0\u09ac\u09b0\u09a6\u09c0","lat":0.0,"lon":0.0,"url":"sreebordi.sherpur.gov.bd"},{"id":460,"district_id":61,"name":"Nokla","bn_name":"\u09a8\u0995\u09b2\u09be","lat":0.0,"lon":0.0,"url":"nokla.sherpur.gov.bd"},{"id":461,"district_id":61,"name":"Jhenaigati","bn_name":"\u099d\u09bf\u09a8\u09be\u0987\u0997\u09be\u09a4\u09c0","lat":0.0,"lon":0.0,"url":"jhenaigati.sherpur.gov.bd"},{"id":462,"district_id":62,"name":"Fulbaria","bn_name":"\u09ab\u09c1\u09b2\u09ac\u09be\u09dc\u09c0\u09df\u09be","lat":24.1864353,"lon":90.2966132,"url":"fulbaria.mymensingh.gov.bd"},{"id":463,"district_id":62,"name":"Trishal","bn_name":"\u09a4\u09cd\u09b0\u09bf\u09b6\u09be\u09b2","lat":24.5801146,"lon":90.3971402,"url":"trishal.mymensingh.gov.bd"},{"id":464,"district_id":62,"name":"Bhaluka","bn_name":"\u09ad\u09be\u09b2\u09c1\u0995\u09be","lat":24.404455,"lon":90.3863536,"url":"bhaluka.mymensingh.gov.bd"},{"id":465,"district_id":62,"name":"Muktagacha","bn_name":"\u09ae\u09c1\u0995\u09cd\u09a4\u09be\u0997\u09be\u099b\u09be","lat":24.7651553,"lon":90.2583669,"url":"muktagacha.mymensingh.gov.bd"},{"id":466,"district_id":62,"name":"Mymensingh Sadar","bn_name":"\u09ae\u09df\u09ae\u09a8\u09b8\u09bf\u0982\u09b9 \u09b8\u09a6\u09b0","lat":24.8680673,"lon":90.7419956,"url":"mymensinghsadar.mymensingh.gov.bd"},{"id":467,"district_id":62,"name":"Dhobaura","bn_name":"\u09a7\u09c7\u09be\u09ac\u09be\u0989\u09dc\u09be","lat":25.0975326,"lon":90.4606544,"url":"dhobaura.mymensingh.gov.bd"},{"id":468,"district_id":62,"name":"Phulpur","bn_name":"\u09ab\u09c1\u09b2\u09aa\u09c1\u09b0","lat":26.03519585,"lon":82.7988338438,"url":"phulpur.mymensingh.gov.bd"},{"id":469,"district_id":62,"name":"Haluaghat","bn_name":"\u09b9\u09be\u09b2\u09c1\u09df\u09be\u0998\u09be\u099f","lat":25.1222567,"lon":90.3395618,"url":"haluaghat.mymensingh.gov.bd"},{"id":470,"district_id":62,"name":"Gouripur","bn_name":"\u0997\u09cc\u09b0\u09c0\u09aa\u09c1\u09b0","lat":24.7600679,"lon":90.5703878,"url":"gouripur.mymensingh.gov.bd"},{"id":471,"district_id":62,"name":"Gafargaon","bn_name":"\u0997\u09ab\u09b0\u0997\u09be\u0981\u0993","lat":24.4550778,"lon":90.5498526,"url":"gafargaon.mymensingh.gov.bd"},{"id":472,"district_id":62,"name":"Iswarganj","bn_name":"\u0988\u09b6\u09cd\u09ac\u09b0\u0997\u099e\u09cd\u099c","lat":0.0,"lon":0.0,"url":"iswarganj.mymensingh.gov.bd"},{"id":473,"district_id":62,"name":"Nandail","bn_name":"\u09a8\u09be\u09a8\u09cd\u09a6\u09be\u0987\u09b2","lat":24.5703293,"lon":90.6866685,"url":"nandail.mymensingh.gov.bd"},{"id":474,"district_id":62,"name":"Tarakanda","bn_name":"\u09a4\u09be\u09b0\u09be\u0995\u09be\u09a8\u09cd\u09a6\u09be","lat":24.8333993,"lon":90.4381487,"url":"tarakanda.mymensingh.gov.bd"},{"id":475,"district_id":63,"name":"Jamalpur Sadar","bn_name":"\u099c\u09be\u09ae\u09be\u09b2\u09aa\u09c1\u09b0 \u09b8\u09a6\u09b0","lat":0.0,"lon":0.0,"url":"jamalpursadar.jamalpur.gov.bd"},{"id":476,"district_id":63,"name":"Melandah","bn_name":"\u09ae\u09c7\u09b2\u09be\u09a8\u09cd\u09a6\u09b9","lat":24.949468,"lon":89.8854452,"url":"melandah.jamalpur.gov.bd"},{"id":477,"district_id":63,"name":"Islampur","bn_name":"\u0987\u09b8\u09b2\u09be\u09ae\u09aa\u09c1\u09b0","lat":25.09734145,"lon":85.2619055606,"url":"islampur.jamalpur.gov.bd"},{"id":478,"district_id":63,"name":"Dewangonj","bn_name":"\u09a6\u09c7\u0993\u09af\u09bc\u09be\u09a8\u0997\u099e\u09cd\u099c","lat":25.1702493,"lon":89.7719739,"url":"dewangonj.jamalpur.gov.bd"},{"id":479,"district_id":63,"name":"Sarishabari","bn_name":"\u09b8\u09b0\u09bf\u09b7\u09be\u09ac\u09be\u09a1\u09bc\u09c0","lat":24.7499467,"lon":89.8331666,"url":"sarishabari.jamalpur.gov.bd"},{"id":480,"district_id":63,"name":"Madarganj","bn_name":"\u09ae\u09be\u09a6\u09be\u09b0\u0997\u099e\u09cd\u099c","lat":25.4261491,"lon":89.3800255,"url":"madarganj.jamalpur.gov.bd"},{"id":481,"district_id":63,"name":"Bokshiganj","bn_name":"\u09ac\u0995\u09b6\u09c0\u0997\u099e\u09cd\u099c","lat":0.0,"lon":0.0,"url":"bokshiganj.jamalpur.gov.bd"},{"id":482,"district_id":64,"name":"Barhatta","bn_name":"\u09ac\u09be\u09b0\u09b9\u09be\u099f\u09cd\u099f\u09be","lat":24.891979,"lon":90.8918435,"url":"barhatta.netrokona.gov.bd"},{"id":483,"district_id":64,"name":"Durgapur","bn_name":"\u09a6\u09c1\u09b0\u09cd\u0997\u09be\u09aa\u09c1\u09b0","lat":23.5350475,"lon":87.3380425,"url":"durgapur.netrokona.gov.bd"},{"id":484,"district_id":64,"name":"Kendua","bn_name":"\u0995\u09c7\u09a8\u09cd\u09a6\u09c1\u09df\u09be","lat":24.6617233,"lon":90.8454168,"url":"kendua.netrokona.gov.bd"},{"id":485,"district_id":64,"name":"Atpara","bn_name":"\u0986\u099f\u09aa\u09be\u09dc\u09be","lat":26.0775999,"lon":73.7368869,"url":"atpara.netrokona.gov.bd"},{"id":486,"district_id":64,"name":"Madan","bn_name":"\u09ae\u09a6\u09a8","lat":-5.2129115,"lon":145.8088188,"url":"madan.netrokona.gov.bd"},{"id":487,"district_id":64,"name":"Khaliajuri","bn_name":"\u0996\u09be\u09b2\u09bf\u09df\u09be\u099c\u09c1\u09b0\u09c0","lat":24.6912562,"lon":91.1411753,"url":"khaliajuri.netrokona.gov.bd"},{"id":488,"district_id":64,"name":"Kalmakanda","bn_name":"\u0995\u09b2\u09ae\u09be\u0995\u09be\u09a8\u09cd\u09a6\u09be","lat":25.0771586,"lon":90.8882575,"url":"kalmakanda.netrokona.gov.bd"},{"id":489,"district_id":64,"name":"Mohongonj","bn_name":"\u09ae\u09cb\u09b9\u09a8\u0997\u099e\u09cd\u099c","lat":24.8756126,"lon":90.9770469417,"url":"mohongonj.netrokona.gov.bd"},{"id":490,"district_id":64,"name":"Purbadhala","bn_name":"\u09aa\u09c2\u09b0\u09cd\u09ac\u09a7\u09b2\u09be","lat":24.941217,"lon":90.6115563,"url":"purbadhala.netrokona.gov.bd"},{"id":491,"district_id":64,"name":"Netrokona Sadar","bn_name":"\u09a8\u09c7\u09a4\u09cd\u09b0\u0995\u09cb\u09a3\u09be \u09b8\u09a6\u09b0","lat":24.871259,"lon":90.7276578,"url":"netrokonasadar.netrokona.gov.bd"},{"id":492,"district_id":38,"name":"shayestaganj","bn_name":"\u09b6\u09be\u09af\u09bc\u09c7\u09b8\u09cd\u09a4\u09be\u0997\u099e\u09cd\u099c","lat":24.2328977,"lon":91.4483097,"url":"http:\/\/shayestaganj.habiganj.gov.bd"}]